{"type":"FeatureCollection","features":[{"type":"Feature","id":1,"geometry":{"type":"MultiPolygon","coordinates":[[[[39.285007637000035,37.36687037400003],[39.291017925000062,37.381664554000054],[39.296602291000056,37.396564885000032],[39.301757546000033,37.411563534000038],[39.306480724000039,37.426652614000034],[39.310769080000057,37.441824184000041],[39.314620091000052,37.457070257000055],[39.318031462000079,37.472382800000048],[39.321001128000034,37.487753741000063],[39.323527249000051,37.503174974000046],[39.325608220000049,37.518638358000032],[39.327242664000039,37.534135727000034],[39.328429443000061,37.549658892000025],[39.329167649000055,37.565199646000053],[39.329456612000058,37.580749766000054],[39.329295900000034,37.596301019000066],[39.328685316000076,37.611845169000048],[39.327624904000061,37.627373975000069],[39.326114945000029,37.642879202000074],[39.324155960000041,37.658352621000063],[39.321748711000055,37.673786015000076],[39.318894197000077,37.689171183000042],[39.315593660000047,37.704499945000066],[39.311848581000049,37.719764146000045],[39.307660678000047,37.734955660000026],[39.303031913000041,37.750066396000079],[39.297964483000044,37.76508829900007],[39.292460825000035,37.78001335700003],[39.286523614000032,37.794833607000044],[39.280155760000071,37.809541135000075],[39.273360410000066,37.824128084000051],[39.266140944000028,37.838586654000039],[39.25850097700004,37.852909113000067],[39.250444354000081,37.867087794000042],[39.241975151000076,37.881115105000049],[39.233097672000042,37.894983529000058],[39.223816448000036,37.908685631000026],[39.21413623400008,37.922214061000034],[39.204062007000061,37.935561558000074],[39.193598964000046,37.948720952000031],[39.182752521000054,37.961685175000071],[39.171528308000063,37.97444725500003],[39.159932167000079,37.987000329000068],[39.147970150000049,37.999337640000078],[39.13564851600006,38.011452547000033],[39.122973726000055,38.023338521000028],[39.109952442000065,38.03498915800003],[39.09659152200004,38.046398174000046],[39.082898018000037,38.057559415000071],[39.068879171000049,38.068466855000054],[39.054542409000078,38.079114606000076],[39.039895340000044,38.089496914000051],[39.02494574900004,38.099608169000078],[39.009701598000049,38.109442903000058],[38.994171016000053,38.118995797000025],[38.978362296000057,38.128261681000026],[38.962283894000052,38.137235539000073],[38.945944419000057,38.145912510000073],[38.929352633000065,38.154287895000039],[38.912517444000059,38.162357155000052],[38.895447899000033,38.170115914000064],[38.878153183000052,38.177559965000057],[38.860642612000049,38.184685269000056],[38.842925627000056,38.191487961000064],[38.825011790000076,38.197964347000038],[38.806910776000052,38.204110912000033],[38.788632371000062,38.20992431600007],[38.770186464000062,38.215401402000055],[38.751583043000039,38.220539195000072],[38.732832187000042,38.225334900000064],[38.713944062000053,38.229785913000057],[38.694928914000059,38.233889812000029],[38.67579706500004,38.23764436600004],[38.656558904000065,38.241047533000028],[38.637224883000044,38.244097461000024],[38.617805511000029,38.246792492000054],[38.59831134600006,38.249131158000068],[38.578752990000055,38.251112188000036],[38.559141085000078,38.252734503000056],[38.539486303000047,38.253997220000031],[38.519799340000077,38.254899653000052],[38.500090912000076,38.255441308000059],[38.480371750000074,38.255621893000068],[38.460652588000073,38.255441308000059],[38.440944160000072,38.254899653000052],[38.421257197000045,38.253997220000031],[38.40160241500007,38.252734503000056],[38.381990510000037,38.251112188000036],[38.362432154000032,38.249131158000068],[38.342937989000063,38.246792492000054],[38.323518617000047,38.244097461000024],[38.304184596000027,38.241047533000028],[38.284946435000052,38.23764436600004],[38.265814586000033,38.233889812000029],[38.246799438000039,38.229785913000057],[38.22791131300005,38.225334900000064],[38.209160457000053,38.220539195000072],[38.19055703600003,38.215401402000055],[38.172111129000029,38.20992431600007],[38.15383272400004,38.204110912000033],[38.135731710000073,38.197964347000038],[38.117817873000035,38.191487961000064],[38.100100888000043,38.184685269000056],[38.08259031700004,38.177559965000057],[38.065295601000059,38.170115914000064],[38.048226056000033,38.162357155000052],[38.031390867000027,38.154287895000039],[38.014799081000035,38.145912510000073],[37.99845960600004,38.137235539000073],[37.982381204000035,38.128261681000026],[37.966572484000039,38.118995797000025],[37.951041902000043,38.109442903000058],[37.935797751000052,38.099608169000078],[37.920848160000048,38.089496914000051],[37.906201091000071,38.079114606000076],[37.891864329000043,38.068466855000054],[37.877845482000055,38.057559415000071],[37.864151978000052,38.046398174000046],[37.850791058000027,38.03498915800003],[37.837769774000037,38.023338521000028],[37.825094984000032,38.011452547000033],[37.812773350000043,37.999337640000078],[37.80081133300007,37.987000329000068],[37.789215192000029,37.97444725500003],[37.777990979000037,37.961685175000071],[37.767144536000046,37.948720952000031],[37.756681493000031,37.935561558000074],[37.746607266000069,37.922214061000034],[37.736927052000055,37.908685631000026],[37.72764582800005,37.894983529000058],[37.718768349000072,37.881115105000049],[37.710299146000068,37.867087794000042],[37.702242523000052,37.852909113000067],[37.694602556000063,37.838586654000039],[37.687383090000026,37.824128084000051],[37.680587740000078,37.809541135000075],[37.67421988600006,37.794833607000044],[37.668282675000057,37.78001335700003],[37.662779017000048,37.76508829900007],[37.657711587000051,37.750066396000079],[37.653082822000044,37.734955660000026],[37.648894919000043,37.719764146000045],[37.645149840000045,37.704499945000066],[37.641849303000072,37.689171183000042],[37.638994789000037,37.673786015000076],[37.63658754000005,37.658352621000063],[37.634628555000063,37.642879202000074],[37.633118596000031,37.627373975000069],[37.632058184000073,37.611845169000048],[37.631447600000058,37.596301019000066],[37.631286888000034,37.580749766000054],[37.631575851000036,37.565199646000053],[37.632314057000031,37.549658892000025],[37.633500836000053,37.534135727000034],[37.635135280000043,37.518638358000032],[37.637216251000041,37.503174974000046],[37.639742372000057,37.487753741000063],[37.64271203800007,37.472382800000048],[37.64612340900004,37.457070257000055],[37.648290916000064,37.448489140000049],[37.63900912500003,37.445100007000065],[37.621468715000049,37.438297936000026],[37.604132518000029,37.431173264000051],[37.58700987900005,37.423729854000044],[37.570110016000058,37.415971742000067],[37.553442018000055,37.407903132000058],[37.53701484100003,37.399528396000051],[37.520837301000029,37.390852069000061],[37.504918069000041,37.381878850000078],[37.489265667000041,37.372613595000075],[37.473888465000073,37.363061317000074],[37.460456065000074,37.354309637000028],[37.456769791000056,37.361736946000065],[37.449175882000077,37.376059700000042],[37.441168044000051,37.390238628000077],[37.432750333000058,37.404266136000047],[37.423927030000073,37.41813471200004],[37.414702641000076,37.431836919000034],[37.405081894000034,37.445365411000068],[37.395069739000064,37.458712926000032],[37.384671345000072,37.47187230000003],[37.373892094000041,37.484836463000079],[37.362737584000058,37.49759844600004],[37.351213623000035,37.510151388000054],[37.339326226000026,37.522488534000047],[37.327081615000054,37.534603243000049],[37.314486213000066,37.546488992000036],[37.301546639000037,37.558139375000053],[37.288269710000066,37.569548113000053],[37.274662434000049,37.580709051000042],[37.260732007000058,37.591616169000076],[37.246485809000035,37.602263578000077],[37.231931400000065,37.612645527000041],[37.217076517000066,37.622756409000033],[37.201929068000027,37.63259075700006],[37.186497132000056,37.642143254000075],[37.170788948000052,37.651408733000039],[37.154812915000036,37.660382180000056],[37.138577588000032,37.669058736000068],[37.122091670000032,37.677433704000066],[37.105364009000027,37.685502545000077],[37.088403595000045,37.693260888000054],[37.07121955000008,37.700704526000038],[37.053821128000038,37.707829424000067],[37.036217706000059,37.714631716000042],[37.018418783000072,37.721107712000048],[37.000433968000038,37.727253897000026],[36.982272981000051,37.733066935000068],[36.963945644000034,37.738543668000034],[36.945461877000071,37.743681123000044],[36.926831691000075,37.748476508000067],[36.90806518200003,37.752927218000025],[36.889172526000038,37.757030834000034],[36.870163973000047,37.76078512600003],[36.851049843000055,37.764188052000065],[36.831840515000067,37.767237762000036],[36.81254642500005,37.769932599000072],[36.79317805900007,37.772271095000065],[36.773745947000066,37.774251980000031],[36.754260656000042,37.775874175000069],[36.734732783000027,37.777136799000061],[36.715172953000035,37.778039164000063],[36.695591807000028,37.778580780000027],[36.676000000000045,37.778761351000071],[36.656408193000061,37.778580780000027],[36.636827047000054,37.778039164000063],[36.617267217000062,37.777136799000061],[36.597739344000047,37.775874175000069],[36.57825405300008,37.774251980000031],[36.558821941000076,37.772271095000065],[36.539453575000039,37.769932599000072],[36.520159485000079,37.767237762000036],[36.500950157000034,37.764188052000065],[36.481836027000043,37.76078512600003],[36.462827474000051,37.757030834000034],[36.443934818000059,37.752927218000025],[36.425168309000071,37.748476508000067],[36.406538123000075,37.743681123000044],[36.388054356000055,37.738543668000034],[36.369727019000038,37.733066935000068],[36.351566032000051,37.727253897000026],[36.333581217000074,37.721107712000048],[36.31578229400003,37.714631716000042],[36.298178872000051,37.707829424000067],[36.280780450000066,37.700704526000038],[36.263596405000044,37.693260888000054],[36.246635991000062,37.685502545000077],[36.229908330000058,37.677433704000066],[36.213422412000057,37.669058736000068],[36.197187085000053,37.660382180000056],[36.181211052000037,37.651408733000039],[36.165502868000033,37.642143254000075],[36.150070932000062,37.63259075700006],[36.13492348300008,37.622756409000033],[36.120068600000025,37.612645527000041],[36.105514191000054,37.602263578000077],[36.091267993000031,37.591616169000076],[36.07733756600004,37.580709051000042],[36.063730290000024,37.569548113000053],[36.050453361000052,37.558139375000053],[36.03751378700008,37.546488992000036],[36.024918385000035,37.534603243000049],[36.012673774000064,37.522488534000047],[36.000786377000054,37.510151388000054],[35.989262416000031,37.49759844600004],[35.978107906000048,37.484836463000079],[35.967328655000074,37.47187230000003],[35.956930261000025,37.458712926000032],[35.946918106000055,37.445365411000068],[35.93729735900007,37.431836919000034],[35.928072970000073,37.41813471200004],[35.919249667000031,37.404266136000047],[35.910831956000038,37.390238628000077],[35.902824118000069,37.376059700000042],[35.895230209000033,37.361736946000065],[35.888054053000076,37.347278030000041],[35.881299246000026,37.332690684000056],[35.874969154000041,37.317982705000077],[35.869066908000036,37.30316195000006],[35.863595406000059,37.288236333000043],[35.858557311000027,37.273213816000066],[35.853955049000035,37.258102410000049],[35.849790812000037,37.242910170000073],[35.846066552000025,37.227645186000075],[35.84278398400005,37.212315584000066],[35.839944586000058,37.196929518000047],[35.837549597000077,37.181495170000062],[35.835600018000036,37.166020740000079],[35.834096610000074,37.150514445000056],[35.833039899000028,37.134984513000063],[35.832430170000066,37.119439182000065],[35.832267472000069,37.10388669200006],[35.832551618000025,37.088335280000024],[35.833282182000062,37.072793181000065],[35.834458506000033,37.057268616000044],[35.83607969600007,37.04176979500005],[35.838144624000051,37.026304908000043],[35.840651930000035,37.010882124000034],[35.843600023000079,36.995509581000078],[35.846987084000034,36.980195389000073],[35.850811065000073,36.964947622000068],[35.855069689000061,36.949774314000024],[35.859760458000039,36.934683454000037],[35.864880650000032,36.919682984000076],[35.870427319000044,36.904780794000033],[35.876397305000069,36.889984717000061],[35.882787228000041,36.875302527000031],[35.889593493000064,36.860741934000032],[35.896812295000075,36.846310577000054],[35.904439617000037,36.832016026000076],[35.912471236000044,36.81786577500003],[35.92090272300004,36.803867237000077],[35.929729449000035,36.790027741000074],[35.938946583000074,36.776354532000028],[35.948549100000037,36.762854762000075],[35.958531780000044,36.749535488000049],[35.968889214000058,36.736403671000062],[35.979615803000058,36.723466168000073],[35.990705767000065,36.710729736000076],[36.002153143000044,36.698201018000077],[36.013951790000078,36.685886549000031],[36.026095396000073,36.673792749000029],[36.038577474000078,36.661925919000055],[36.051391373000058,36.650292240000056],[36.064530276000028,36.638897768000049],[36.077987208000025,36.627748434000068],[36.091755037000041,36.616850035000027],[36.105826477000051,36.606208239000068],[36.120194097000024,36.595828576000031],[36.13485031600004,36.585716440000056],[36.149787418000074,36.575877081000044],[36.164997545000062,36.566315608000025],[36.180472708000025,36.557036983000046],[36.196204791000071,36.548046018000036],[36.212185552000051,36.539347378000059],[36.228406626000037,36.530945571000075],[36.244859537000025,36.522844951000025],[36.261535691000063,36.515049717000068],[36.278426392000028,36.507563904000051],[36.295522836000032,36.500391390000061],[36.312816123000061,36.493535888000054],[36.330297257000041,36.487000945000034],[36.34795715000007,36.480789943000048],[36.365786633000027,36.474906095000051],[36.383776451000074,36.469352442000059],[36.401917274000027,36.46413185800003],[36.420199701000058,36.459247041000026],[36.438614260000065,36.454700516000059],[36.45715141900007,36.450494632000073],[36.475801586000046,36.44663156200005],[36.494555116000072,36.443113302000029],[36.513402313000029,36.439941670000053],[36.53233343800008,36.437118303000034],[36.551338711000028,36.434644659000071],[36.570408317000044,36.432522017000053],[36.58953241200004,36.430751471000065],[36.60870112200007,36.429333937000024],[36.627904556000033,36.428270145000056],[36.647132805000069,36.427560646000074],[36.666375946000073,36.427205804000039],[36.685624054000073,36.427205804000039],[36.704867195000077,36.427560646000074],[36.724095444000056,36.428270145000056],[36.743298878000076,36.429333937000024],[36.76246758800005,36.430751471000065],[36.781591683000045,36.432522017000053],[36.800661289000061,36.434644659000071],[36.819666562000066,36.437118303000034],[36.83859768700006,36.439941670000053],[36.857444884000074,36.443113302000029],[36.876198414000044,36.44663156200005],[36.894848581000076,36.450494632000073],[36.913385740000024,36.454700516000059],[36.931800299000031,36.459247041000026],[36.950082726000062,36.46413185800003],[36.968223549000072,36.469352442000059],[36.986213367000062,36.474906095000051],[37.004042850000076,36.480789943000048],[37.021702743000048,36.487000945000034],[37.039183877000028,36.493535888000054],[37.056477164000057,36.500391390000061],[37.073573608000061,36.507563904000051],[37.090464309000026,36.515049717000068],[37.107140463000064,36.522844951000025],[37.123593374000052,36.530945571000075],[37.139814448000038,36.539347378000059],[37.155795209000075,36.548046018000036],[37.171527292000064,36.557036983000046],[37.187002455000027,36.566315608000025],[37.202212582000072,36.575877081000044],[37.217034130000059,36.585640322000074],[37.221460060000027,36.576758870000049],[37.229059390000032,36.56246318500007],[37.237061651000033,36.548311786000056],[37.245462431000078,36.534312088000036],[37.254257120000034,36.520471421000025],[37.263440907000074,36.506797031000076],[37.273008784000069,36.493296071000032],[37.282955553000079,36.479975601000035],[37.29327582500008,36.466842583000073],[37.303964022000059,36.453903877000073],[37.31501438600003,36.441166238000051],[37.326420976000065,36.428636314000073],[37.338177675000054,36.416320640000038],[37.35027819000004,36.40422563900006],[37.362716062000061,36.392357612000069],[37.37548466100003,36.380722743000035],[37.388577196000028,36.36932708900008],[37.401986715000078,36.358176581000066],[37.415706113000056,36.347277021000025],[37.429728130000058,36.336634077000042],[37.44404535700005,36.32625328000006],[37.458650244000069,36.316140027000074],[37.47353509900006,36.306299568000043],[37.488692091000075,36.296737015000076],[37.504113259000064,36.287457331000041],[37.519790515000068,36.278465330000074],[37.535715642000071,36.269765677000066],[37.551880307000033,36.261362883000061],[37.568276059000027,36.253261304000034],[37.584894336000048,36.245465138000043],[37.601726467000049,36.237978425000051],[37.618763681000075,36.230805041000053],[37.635997104000069,36.223948700000051],[37.653417771000079,36.217412954000054],[37.671016626000039,36.211201182000025],[37.688784526000063,36.20531660100005],[37.706712248000031,36.199762253000074],[37.724790492000068,36.194541011000069],[37.743009887000028,36.189655576000064],[37.761360993000039,36.185108472000024],[37.779834308000034,36.180902051000032],[37.798420271000055,36.177038486000072],[37.817109266000045,36.173519773000066],[37.835891631000038,36.170347731000049],[37.854757656000061,36.167523999000025],[37.873697594000078,36.165050035000036],[37.892701661000046,36.162927116000048],[37.911760042000026,36.161156340000048],[37.930862897000054,36.159738620000041],[37.95000036600004,36.158674690000055],[37.969162570000037,36.157965097000044],[37.988339620000033,36.15761020900004],[38.007521620000034,36.15761020900004],[38.02669867000003,36.157965097000044],[38.045860874000027,36.158674690000055],[38.06499834300007,36.159738620000041],[38.084101198000042,36.161156340000048],[38.103159579000078,36.162927116000048],[38.122163646000047,36.165050035000036],[38.141103584000064,36.167523999000025],[38.159969609000029,36.170347731000049],[38.178751974000079,36.173519773000066],[38.19744096900007,36.177038486000072],[38.216026932000034,36.180902051000032],[38.234500247000028,36.185108472000024],[38.25285135300004,36.189655576000064],[38.271070748000056,36.194541011000069],[38.289148992000037,36.199762253000074],[38.307076714000061,36.20531660100005],[38.324844614000028,36.211201182000025],[38.342443469000045,36.217412954000054],[38.359864136000056,36.223948700000051],[38.377097559000049,36.230805041000053],[38.394134773000076,36.237978425000051],[38.410966904000077,36.245465138000043],[38.42758518100004,36.253261304000034],[38.443980933000034,36.261362883000061],[38.460145598000054,36.269765677000066],[38.476070725000056,36.278465330000074],[38.49174798100006,36.287457331000041],[38.507169149000049,36.296737015000076],[38.522326141000065,36.306299568000043],[38.537210996000056,36.316140027000074],[38.551815883000074,36.32625328000006],[38.566133110000067,36.336634077000042],[38.580155127000069,36.347277021000025],[38.593874525000047,36.358176581000066],[38.607284044000039,36.36932708900008],[38.620376579000038,36.380722743000035],[38.633145178000063,36.392357612000069],[38.645583050000027,36.40422563900006],[38.65768356500007,36.416320640000038],[38.669440264000059,36.428636314000073],[38.680846854000038,36.441166238000051],[38.691897218000065,36.453903877000073],[38.702585415000044,36.466842583000073],[38.712905687000045,36.479975601000035],[38.722852456000055,36.493296071000032],[38.73242033300005,36.506797031000076],[38.741604120000034,36.520471421000025],[38.750398809000046,36.534312088000036],[38.758799589000034,36.548311786000056],[38.766801850000036,36.56246318500007],[38.774401180000041,36.576758870000049],[38.781593374000067,36.591191345000027],[38.788374431000079,36.605753041000071],[38.794740561000026,36.620436315000063],[38.800688186000059,36.635233457000027],[38.806213941000067,36.650136691000057],[38.811314678000031,36.665138184000057],[38.81598746700007,36.68023004500003],[38.820229596000047,36.695404330000031],[38.824038580000035,36.710653050000076],[38.827412153000068,36.725968168000065],[38.830348280000067,36.741341612000042],[38.832845147000057,36.756765270000074],[38.834901175000027,36.772231002000069],[38.836515012000064,36.787730639000074],[38.837685537000027,36.803255991000071],[38.838411864000079,36.818798849000075],[38.838693338000041,36.83435098700005],[38.838529541000071,36.849904174000073],[38.837920288000078,36.865450170000031],[38.83686563200007,36.880980736000026],[38.83536586200006,36.896487633000049],[38.833421503000068,36.911962634000076],[38.831033320000074,36.927397520000056],[38.828202311000041,36.942784092000068],[38.824929716000042,36.958114168000066],[38.823877612000047,36.962440074000028],[38.828218936000042,36.963957135000044],[38.845809043000031,36.970490645000041],[38.863210216000027,36.977344654000035],[38.880413408000038,36.984515617000056],[38.89740966200003,36.991999822000025],[38.914190126000051,36.999793397000076],[38.93074604800006,37.007892306000031],[38.947068786000045,37.016292354000029],[38.963149809000072,37.024989191000031],[38.978980704000037,37.03397830800003],[38.994553180000025,37.04325504600007],[39.009859067000036,37.05281459400004],[39.024890330000062,37.062651993000031],[39.039639064000028,37.07276213800003],[39.054097500000069,37.083139781000057],[39.068258015000026,37.093779530000063],[39.08211312800006,37.104675860000043],[39.095655509000039,37.115823105000061],[39.108877979000056,37.127215469000078],[39.121773519000044,37.138847027000054],[39.134335269000076,37.150711724000075],[39.14655653300008,37.162803383000039],[39.158430784000075,37.175115706000042],[39.169951666000031,37.18764227500003],[39.18111299900005,37.200376560000052],[39.191908781000052,37.213311917000055],[39.202333190000047,37.22644159500004],[39.212380592000045,37.239758739000024],[39.222045539000078,37.253256392000026],[39.23132277600007,37.26692749700004],[39.240207241000064,37.280764906000059],[39.248694072000035,37.294761378000032],[39.256778603000043,37.308909585000038],[39.264456375000066,37.323202117000051],[39.271723134000069,37.337631482000063],[39.27857483300005,37.352190114000052],[39.285007637000035,37.36687037400003]]],[[[34.257190596000044,40.827688160000037],[34.244372608000049,40.839804484000069],[34.231186220000041,40.851692055000058],[34.217638358000045,40.86334445500006],[34.203736153000079,40.87475538700005],[34.189486938000073,40.885918684000046],[34.174898247000044,40.896828309000057],[34.159977809000054,40.907478357000059],[34.14473354200004,40.917863064000073],[34.129173555000079,40.927976805000071],[34.113306136000062,40.937814099000036],[34.097139753000079,40.947369613000035],[34.080683047000036,40.956638165000072],[34.063944827000057,40.965614726000069],[34.046934067000052,40.974294422000071],[34.029659901000059,40.982672541000056],[34.012131614000054,40.990744530000029],[33.994358643000055,40.998506003000045],[33.976350566000065,41.005952740000055],[33.958117099000049,41.013080691000027],[33.939668092000034,41.019885978000048],[33.921013521000077,41.026364898000054],[33.902163484000027,41.032513924000057],[33.883128191000026,41.03832970600007],[33.863917965000041,41.043809078000038],[33.844543232000035,41.048949054000047],[33.825014513000042,41.053746833000048],[33.805342422000024,41.058199800000068],[33.785537658000067,41.062305526000046],[33.765610998000056,41.066061773000058],[33.745573291000028,41.06946649200006],[33.725435453000046,41.07251782700007],[33.705208459000062,41.075214111000037],[33.684903338000026,41.077553873000056],[33.664531163000049,41.079535838000027],[33.64410304900008,41.081158923000032],[33.62363014400006,41.082422242000064],[33.603123622000055,41.083325106000075],[33.582594678000078,41.08386702100006],[33.562054520000061,41.08404769200007],[33.541514362000044,41.08386702100006],[33.520985418000066,41.083325106000075],[33.500478896000061,41.082422242000064],[33.480005991000041,41.081158923000032],[33.459577877000072,41.079535838000027],[33.439205702000038,41.077553873000056],[33.418900581000059,41.075214111000037],[33.398673587000076,41.07251782700007],[33.378535749000037,41.06946649200006],[33.358498042000065,41.066061773000058],[33.338571382000055,41.062305526000046],[33.318766618000041,41.058199800000068],[33.299094527000079,41.053746833000048],[33.279565808000029,41.048949054000047],[33.26019107500008,41.043809078000038],[33.240980849000039,41.03832970600007],[33.221945556000037,41.032513924000057],[33.203095519000044,41.026364898000054],[33.184440948000031,41.019885978000048],[33.165991941000073,41.013080691000027],[33.147758474000057,41.005952740000055],[33.129750397000066,40.998506003000045],[33.111977426000067,40.990744530000029],[33.094449139000062,40.982672541000056],[33.077174973000069,40.974294422000071],[33.060164213000064,40.965614726000069],[33.043425993000028,40.956638165000072],[33.026969287000043,40.947369613000035],[33.010802904000059,40.937814099000036],[32.994935485000042,40.927976805000071],[32.979375498000024,40.917863064000073],[32.964131231000067,40.907478357000059],[32.949210793000077,40.896828309000057],[32.934622102000048,40.885918684000046],[32.920372887000042,40.87475538700005],[32.906470682000077,40.86334445500006],[32.892922820000024,40.851692055000058],[32.879736432000072,40.839804484000069],[32.866918444000078,40.827688160000037],[32.854475569000044,40.815349622000042],[32.842414308000059,40.802795525000079],[32.830740945000059,40.790032638000071],[32.81946154600007,40.777067836000072],[32.808581950000075,40.763908099000048],[32.798107774000073,40.75056051100006],[32.78804440600004,40.737032249000038],[32.778397004000055,40.723330585000042],[32.769170491000068,40.709462878000068],[32.760369556000057,40.695436573000052],[32.751998651000065,40.681259195000052],[32.744061990000034,40.666938346000052],[32.736563543000045,40.652481697000042],[32.729507041000033,40.637896991000048],[32.722895969000035,40.623192031000031],[32.716733569000041,40.608374682000033],[32.711022833000072,40.59345286100006],[32.705766510000046,40.578434538000067],[32.700967099000025,40.563327728000047],[32.69662684900004,40.548140488000058],[32.692747762000067,40.532880913000042],[32.689331589000062,40.517557129000068],[32.686379831000067,40.502177294000035],[32.683893739000041,40.486749587000077],[32.681874314000027,40.471282210000027],[32.68032230700004,40.455783378000035],[32.679238219000069,40.440261317000079],[32.678622301000075,40.424724262000041],[32.678474559000051,40.409180448000029],[32.678794745000062,40.39363811000004],[32.679582369000059,40.378105475000041],[32.680836691000025,40.362590759000057],[32.682556730000044,40.347102165000081],[32.684741256000052,40.331647874000055],[32.687388799000075,40.316236046000029],[32.690497648000076,40.300874812000075],[32.694065852000051,40.285572270000046],[32.698091222000073,40.270336482000062],[32.702571330000069,40.25517547100003],[32.707503519000056,40.240097214000059],[32.712884894000069,40.225109639000038],[32.718712334000031,40.210220622000065],[32.724982487000034,40.195437983000033],[32.731691776000048,40.180769479000048],[32.73883640300005,40.166222804000029],[32.746412345000067,40.151805582000065],[32.754415364000067,40.137525365000045],[32.762841005000041,40.123389630000077],[32.771684601000061,40.10940577100007],[32.780941274000043,40.095581100000061],[32.790605940000034,40.081922843000029],[32.800673310000036,40.068438130000061],[32.811137896000048,40.055134002000045],[32.821994012000062,40.042017398000041],[32.833235777000027,40.029095157000029],[32.84485711800005,40.016374011000039],[32.856851777000031,40.003860587000077],[32.869213311000067,39.991561397000055],[32.881935097000053,39.97948283900007],[32.895010334000062,39.967631195000024],[32.908432048000066,39.956012624000039],[32.922193099000026,39.94463316000008],[32.936286177000056,39.933498712000073],[32.950703813000075,39.922615059000066],[32.96543838100007,39.911987845000056],[32.980482099000028,39.901622581000026],[32.995827037000026,39.891524638000078],[33.011465120000025,39.881699247000029],[33.027388131000066,39.872151496000072],[33.043587715000058,39.862886327000069],[33.060055387000034,39.853908534000027],[33.07678252900007,39.84522276000007],[33.093760403000033,39.836833494000075],[33.110980149000056,39.828745075000029],[33.128432793000059,39.82096167900005],[33.146109247000027,39.813487327000075],[33.164000320000071,39.806325878000052],[33.182096716000046,39.799481028000059],[33.200389044000076,39.792956309000033],[33.218867819000025,39.786755088000064],[33.237523468000063,39.78088056200005],[33.256346332000078,39.775335760000075],[33.275326677000066,39.770123540000043],[33.294454692000045,39.765246588000025],[33.313720497000077,39.760707418000038],[33.333114146000071,39.756508367000038],[33.352625635000038,39.752651598000057],[33.372244903000023,39.749139098000057],[33.391961838000043,39.745972675000075],[33.411766283000077,39.74315395800005],[33.431648040000027,39.740684400000077],[33.451596874000074,39.738565271000027],[33.471602519000044,39.736797661000026],[33.491654681000057,39.735382481000045],[33.511743047000039,39.73432045800007],[33.531857284000068,39.733612139000059],[33.551987049000047,39.733257888000026],[33.572121991000074,39.733257888000026],[33.592251756000053,39.733612139000059],[33.612365993000026,39.73432045800007],[33.632454359000064,39.735382481000045],[33.652506521000078,39.736797661000026],[33.669396130000052,39.738289952000059],[33.679805435000048,39.727891383000042],[33.692477517000043,39.715811574000043],[33.705501763000029,39.703958683000053],[33.718871228000069,39.69233887200005],[33.732578797000031,39.680958175000058],[33.746617192000031,39.66982250500007],[33.760978971000043,39.658937640000033],[33.775656537000032,39.648309228000073],[33.790642139000056,39.637942781000049],[33.805927878000034,39.627843671000051],[33.821505707000028,39.61801713300008],[33.837367442000073,39.608468254000059],[33.853504760000078,39.599201979000043],[33.869909205000056,39.590223103000028],[33.886572195000042,39.581536270000072],[33.903485021000051,39.573145974000056],[33.920638857000029,39.565056551000055],[33.938024761000065,39.55727218100003],[33.955633680000062,39.549796886000024],[33.973456455000075,39.542634527000075],[33.991483826000035,39.535788801000081],[34.009706434000066,39.529263241000081],[34.017189104000067,39.52674223300005],[34.029858249000029,39.51796242100005],[34.045117308000044,39.507862782000075],[34.060667984000077,39.498035723000044],[34.076502104000042,39.488486333000026],[34.092611360000035,39.479219557000079],[34.108987312000068,39.470240190000027],[34.125621389000059,39.461552878000077],[34.142504900000063,39.453162114000065],[34.159629033000044,39.445072236000044],[34.176984860000061,39.437287425000079],[34.194563343000027,39.429811703000041],[34.212355338000066,39.422648931000026],[34.230351601000052,39.41580280800008],[34.248542788000066,39.409276867000074],[34.266919464000068,39.403074476000029],[34.285472105000053,39.39719883500004],[34.304191105000029,39.391652975000056],[34.323066779000044,39.386439755000026],[34.342089367000028,39.381561863000059],[34.361249040000075,39.377021813000056],[34.380535904000055,39.372821944000066],[34.399940005000076,39.368964422000033],[34.419451335000076,39.365451233000044],[34.439059834000034,39.362284187000057],[34.458755396000072,39.359464914000057],[34.478527876000044,39.356994867000026],[34.498367092000024,39.35487531800004],[34.518262828000047,39.353107357000056],[34.538204845000053,39.351691895000044],[34.55818288200004,39.350629660000038],[34.57818665800005,39.34992120000004],[34.598205882000059,39.349566879000065],[34.61823025800004,39.349566879000065],[34.638249482000049,39.34992120000004],[34.658253258000059,39.350629660000038],[34.678231295000046,39.351691895000044],[34.698173312000051,39.353107357000056],[34.718069048000075,39.35487531800004],[34.737908264000055,39.356994867000026],[34.757680744000027,39.359464914000057],[34.777376306000065,39.362284187000057],[34.796984805000079,39.365451233000044],[34.816496135000079,39.368964422000033],[34.835900236000043,39.372821944000066],[34.85518710000008,39.377021813000056],[34.87434677300007,39.381561863000059],[34.893369361000055,39.386439755000026],[34.912245035000069,39.391652975000056],[34.930964035000045,39.39719883500004],[34.94951667600003,39.403074476000029],[34.967893352000033,39.409276867000074],[34.986084539000046,39.41580280800008],[35.004080802000033,39.422648931000026],[35.021872797000071,39.429811703000041],[35.039451280000037,39.437287425000079],[35.056807107000054,39.445072236000044],[35.073931240000036,39.453162114000065],[35.090814751000039,39.461552878000077],[35.107448828000031,39.470240190000027],[35.123824780000064,39.479219557000079],[35.139934036000056,39.488486333000026],[35.155768156000079,39.498035723000044],[35.171318832000054,39.507862782000075],[35.18657789100007,39.51796242100005],[35.201537302000077,39.528329404000033],[35.216189180000072,39.538958359000048],[35.230525787000033,39.549843773000077],[35.244539537000037,39.56097999800005],[35.258223005000048,39.572361253000054],[35.271568923000075,39.583981627000071],[35.284570190000068,39.595835083000054],[35.297219872000028,39.607915459000026],[35.30951120900005,39.620216471000049],[35.321437616000026,39.632731719000049],[35.332992687000058,39.64545468700004],[35.344170200000065,39.658378747000029],[35.35496412100008,39.671497164000073],[35.365368603000036,39.684803097000042],[35.375377995000065,39.698289602000045],[35.384986841000057,39.711949640000057],[35.394189886000049,39.725776075000056],[35.402982077000047,39.739761681000061],[35.411358568000026,39.753899143000069],[35.419314722000024,39.768181064000032],[35.426846111000032,39.782599966000078],[35.433948526000052,39.797148295000056],[35.440617972000041,39.81181842500007],[35.446850674000075,39.826602659000059],[35.452643081000076,39.841493238000055],[35.457991866000043,39.856482342000049],[35.462893927000039,39.87156209300008],[35.46734639400006,39.886724561000051],[35.471346627000059,39.901961766000056],[35.474892219000026,39.917265687000054],[35.47579019300008,39.921731915000066],[35.476051109000025,39.922101638000072],[35.485283403000039,39.935927108000044],[35.494103630000041,39.949911758000042],[35.50250692700007,39.964048276000028],[35.510488641000052,39.97832926500007],[35.518044329000077,39.992747248000057],[35.525169766000033,40.007294672000057],[35.531860942000037,40.021963912000047],[35.538114070000063,40.036747274000049],[35.543925583000032,40.051636999000038],[35.54929214200007,40.066625266000074],[35.554210634000071,40.081704199000058],[35.558678176000058,40.096865870000045],[35.562692118000029,40.11210230000006],[35.566250041000046,40.127405466000027],[35.569349766000073,40.142767306000053],[35.571989347000056,40.158179720000078],[35.574167081000041,40.17363457600004],[35.575881503000062,40.18912371600004],[35.57713139100008,40.204638957000043],[35.577915768000025,40.220172096000056],[35.578233898000065,40.235714917000053],[35.578085294000061,40.251259191000031],[35.577469714000074,40.266796685000031],[35.576387165000028,40.282319162000078],[35.574837900000034,40.297818388000053],[35.572822421000069,40.313286137000034],[35.570341480000025,40.328714193000053],[35.567396078000058,40.344094355000038],[35.563987466000071,40.359418442000049],[35.56011714300007,40.374678299000038],[35.555786858000033,40.389865799000063],[35.550998610000079,40.404972846000078],[35.545754646000034,40.41999138400007],[35.540057460000071,40.434913398000049],[35.533909795000056,40.449730919000046],[35.527314640000043,40.464436030000059],[35.520275229000049,40.479020867000031],[35.51279504200005,40.493477625000025],[35.504877800000031,40.50779856500003],[35.496527467000078,40.521976013000028],[35.48774824700007,40.536002370000062],[35.47854458200004,40.549870110000029],[35.468921150000028,40.563571791000072],[35.458882866000067,40.577100052000048],[35.448434874000043,40.590447622000056],[35.437582550000059,40.603607325000041],[35.426331496000046,40.616572079000036],[35.414687540000045,40.629334904000075],[35.402656733000072,40.641888925000046],[35.390245342000071,40.654227374000072],[35.377459854000051,40.666343597000036],[35.364306965000026,40.678231056000072],[35.350793583000041,40.689883333000068],[35.336926821000077,40.701294133000033],[35.322713995000072,40.712457289000042],[35.308162619000029,40.723366764000048],[35.29328040200005,40.734016657000041],[35.278075244000036,40.744401202000063],[35.262555229000043,40.754514775000075],[35.246728626000049,40.76435189700004],[35.230603880000047,40.77390723600007],[35.214189610000062,40.783175610000058],[35.197494601000074,40.792151990000036],[35.180527804000064,40.800831505000076],[35.163298327000064,40.809209442000054],[35.145815433000053,40.817281250000065],[35.12808853100006,40.825042543000052],[35.11012717400007,40.832489102000068],[35.091941052000038,40.839616878000072],[35.073539989000039,40.846421993000035],[35.05493393200004,40.852900746000046],[35.03613295200006,40.859049609000067],[35.01714723300006,40.864865235000025],[34.997987067000054,40.870344456000055],[34.97866285200007,40.875484288000052],[34.959185081000044,40.88028193100007],[34.939564338000025,40.884734769000033],[34.919811293000066,40.888840375000029],[34.89993669100005,40.892596511000079],[34.879951353000024,40.89600112800008],[34.859866165000028,40.89905236900006],[34.83969206900008,40.901748571000041],[34.819440065000038,40.904088262000073],[34.799121195000055,40.906070165000074],[34.778746542000079,40.90769320000004],[34.758327224000027,40.90895647900004],[34.737874383000076,40.909859314000073],[34.717399183000055,40.910401213000057],[34.696912800000064,40.910581878000073],[34.676426417000073,40.910401213000057],[34.655951217000052,40.909859314000073],[34.635498376000044,40.90895647900004],[34.615079058000049,40.90769320000004],[34.594704405000073,40.906070165000074],[34.574385535000033,40.904088262000073],[34.554133531000048,40.901748571000041],[34.533959435000043,40.89905236900006],[34.513874247000047,40.89600112800008],[34.493888909000077,40.892596511000079],[34.474014307000061,40.888840375000029],[34.454261262000045,40.884734769000033],[34.434640519000027,40.88028193100007],[34.415162748000057,40.875484288000052],[34.395838533000074,40.870344456000055],[34.376678367000068,40.864865235000025],[34.357692648000068,40.859049609000067],[34.338891668000031,40.852900746000046],[34.320285611000031,40.846421993000035],[34.301884548000032,40.839616878000072],[34.283698426000058,40.832489102000068],[34.265737069000068,40.825042543000052],[34.261659115000043,40.823257110000043],[34.257190596000044,40.827688160000037]]]]},"properties":{"OBJECTID":1,"Shape_Length":17.263880933180491,"Shape_Area":8.3889445459074121}}]}