{"type":"FeatureCollection","features":[{"type":"Feature","id":1,"geometry":{"type":"MultiPolygon","coordinates":[[[[32.223850655000035,26.317326113000036],[32.228371264000032,26.332363325000074],[32.232507783000074,26.347490142000026],[32.236257883000064,26.362698586000079],[32.239619431000051,26.377980631000071],[32.242590502000041,26.393328212000029],[32.245169372000078,26.40873322300007],[32.247354522000023,26.424187528000061],[32.249144640000054,26.439682958000049],[32.250538621000032,26.455211323000071],[32.251535570000044,26.470764410000072],[32.252134798000043,26.486333990000048],[32.252335828000071,26.501911822000068],[32.252138392000063,26.517489657000056],[32.251542433000054,26.533059244000071],[32.250548107000043,26.548612331000072],[32.249155779000034,26.564140675000033],[32.247366026000066,26.579636039000036],[32.245179637000035,26.595090201000062],[32.242597614000033,26.610494961000029],[32.239621169000031,26.625842137000063],[32.236251723000066,26.64112357700003],[32.23249091200006,26.656331162000072],[32.228340578000029,26.671456805000048],[32.223802775000024,26.686492464000025],[32.218879765000054,26.701430138000035],[32.213574017000042,26.716261878000068],[32.207888207000053,26.730979785000045],[32.201825218000067,26.745576021000034],[32.19538813500003,26.760042808000037],[32.18858024900004,26.774372433000053],[32.181405050000023,26.788557257000036],[32.173866229000055,26.802589711000053],[32.165967676000037,26.816462307000052],[32.157713475000037,26.830167638000034],[32.14910790700003,26.843698387000074],[32.140155445000062,26.857047323000074],[32.130860751000057,26.870207313000037],[32.121228675000054,26.883171321000077],[32.111264256000027,26.895932414000072],[32.100972711000054,26.908483764000039],[32.090359440000043,26.920818655000062],[32.079430022000054,26.932930483000064],[32.068190207000043,26.944812761000037],[32.05664592200003,26.956459125000038],[32.044803258000059,26.967863334000072],[32.032668474000047,26.979019274000052],[32.020247991000076,26.989920964000078],[32.007548389000078,27.000562556000034],[31.994576405000032,27.010938341000042],[31.981338925000045,27.021042752000028],[31.967842984000072,27.030870363000076],[31.954095765000034,27.040415898000049],[31.940104586000075,27.049674230000051],[31.925876906000042,27.058640385000047],[31.911420316000033,27.067309545000057],[31.896742532000076,27.075677050000024],[31.881851400000073,27.083738402000051],[31.866754881000077,27.091489265000064],[31.851461055000073,27.098925472000076],[31.835978110000042,27.106043021000062],[31.820314344000053,27.112838083000042],[31.804478155000027,27.119307000000049],[31.788478038000051,27.125446292000049],[31.772322582000072,27.131252652000057],[31.756020464000073,27.136722955000039],[31.739580441000044,27.141854253000076],[31.723011353000061,27.146643784000048],[31.706322109000041,27.151088968000067],[31.689521687000024,27.155187409000064],[31.672619130000044,27.158936899000025],[31.655623537000054,27.162335418000055],[31.638544059000026,27.165381134000029],[31.621389898000075,27.168072405000032],[31.604170295000074,27.170407782000041],[31.586894531000041,27.172386004000032],[31.569571916000029,27.17400600600007],[31.552211788000079,27.175266915000066],[31.534823508000045,27.176168049000069],[31.517416450000042,27.176708925000071],[31.500000000000057,27.176889249000055],[31.482583550000072,27.176708925000071],[31.465176492000069,27.176168049000069],[31.447788212000034,27.175266915000066],[31.430428084000027,27.17400600600007],[31.413105469000072,27.172386004000032],[31.39582970500004,27.170407782000041],[31.378610102000039,27.168072405000032],[31.361455941000031,27.165381134000029],[31.34437646300006,27.162335418000055],[31.32738087000007,27.158936899000025],[31.310478313000033,27.155187409000064],[31.293677891000073,27.151088968000067],[31.276988647000053,27.146643784000048],[31.26041955900007,27.141854253000076],[31.24397953600004,27.136722955000039],[31.227677418000042,27.131252652000057],[31.211521962000063,27.125446292000049],[31.19552184500003,27.119307000000049],[31.179685656000061,27.112838083000042],[31.164021890000072,27.106043021000062],[31.148538945000041,27.098925472000076],[31.133245119000037,27.091489265000064],[31.11814860000004,27.083738402000051],[31.103257468000038,27.075677050000024],[31.088579684000024,27.067309545000057],[31.074123094000072,27.058640385000047],[31.059895414000039,27.049674230000051],[31.045904235000023,27.040415898000049],[31.032157016000042,27.030870363000076],[31.018661075000068,27.021042752000028],[31.005423595000025,27.010938341000042],[30.992451611000035,27.000562556000034],[30.979752009000038,26.989920964000078],[30.967331526000066,26.979019274000052],[30.955196742000055,26.967863334000072],[30.943354078000027,26.956459125000038],[30.93180979300007,26.944812761000037],[30.92056997800006,26.932930483000064],[30.909640560000071,26.920818655000062],[30.89902728900006,26.908483764000039],[30.88873574400003,26.895932414000072],[30.878771325000059,26.883171321000077],[30.869139249000057,26.870207313000037],[30.859844555000052,26.857047323000074],[30.850892093000027,26.843698387000074],[30.842286525000077,26.830167638000034],[30.834032324000077,26.816462307000052],[30.826133771000059,26.802589711000053],[30.818594950000033,26.788557257000036],[30.811419751000074,26.774372433000053],[30.804611865000027,26.760042808000037],[30.798174782000046,26.745576021000034],[30.792111793000061,26.730979785000045],[30.786425983000072,26.716261878000068],[30.78112023500006,26.701430138000035],[30.776197225000033,26.686492464000025],[30.771659422000027,26.671456805000048],[30.767509088000054,26.656331162000072],[30.763748277000047,26.64112357700003],[30.760378831000025,26.625842137000063],[30.757402386000024,26.610494961000029],[30.754820363000078,26.595090201000062],[30.752633974000048,26.579636039000036],[30.750844221000079,26.564140675000033],[30.749451893000071,26.548612331000072],[30.748457567000059,26.533059244000071],[30.747861608000051,26.517489657000056],[30.747664172000043,26.501911822000068],[30.747865202000071,26.486333990000048],[30.74846443000007,26.470764410000072],[30.749461379000024,26.455211323000071],[30.75085536000006,26.439682958000049],[30.752645478000034,26.424187528000061],[30.754830628000036,26.40873322300007],[30.757409498000072,26.393328212000029],[30.760380569000063,26.377980631000071],[30.763742117000049,26.362698586000079],[30.76749221700004,26.347490142000026],[30.771628736000025,26.332363325000074],[30.776149345000078,26.317326113000036],[30.781051511000044,26.302386433000038],[30.786332507000054,26.287552161000065],[30.791989407000074,26.272831111000073],[30.798019091000072,26.25823103700003],[30.804418246000068,26.243759624000063],[30.811183370000037,26.229424489000053],[30.818310770000039,26.215233173000058],[30.82579657000008,26.201193139000054],[30.83363670600005,26.187311769000075],[30.841826934000039,26.173596357000065],[30.850362833000077,26.160054109000043],[30.859239801000058,26.146692137000059],[30.86845306400005,26.133517457000039],[30.877997676000064,26.120536982000033],[30.887868523000066,26.107757523000032],[30.898060324000028,26.095185783000034],[30.908567635000054,26.082828354000071],[30.919384852000064,26.070691714000077],[30.930506214000047,26.058782221000058],[30.941925806000029,26.047106116000066],[30.95363756200004,26.035669513000073],[30.965635269000074,26.024478400000078],[30.977912568000079,26.013538636000078],[30.990462962000038,26.002855944000032],[31.003279814000052,25.992435913000065],[31.016356354000038,25.982283993000067],[31.029685681000046,25.972405493000053],[31.043260767000049,25.96280557700004],[31.057074463000049,25.953489261000072],[31.071119497000041,25.944461415000035],[31.085388484000077,25.935726754000029],[31.099873925000054,25.927289840000071],[31.11456821400003,25.919155079000063],[31.129463641000029,25.911326718000055],[31.144552395000062,25.903808844000025],[31.159826569000074,25.89660537900005],[31.17527816300003,25.889720083000043],[31.190899089000027,25.883156548000045],[31.206681175000028,25.876918197000066],[31.222616170000038,25.871008285000073],[31.23869574400004,25.865429893000055],[31.25491149800007,25.860185929000068],[31.271254965000026,25.855279128000063],[31.28771761400003,25.850712046000069],[31.304290854000044,25.846487066000066],[31.320966041000077,25.842606388000036],[31.337734479000062,25.839072036000061],[31.354587428000059,25.835885849000078],[31.371516104000079,25.833049490000064],[31.388511687000062,25.830564434000053],[31.405565322000029,25.828431978000026],[31.422668127000065,25.826653231000023],[31.439811195000061,25.825229120000074],[31.456985600000053,25.824160388000053],[31.474182399000028,25.823447590000058],[31.491392639000026,25.823091098000077],[31.508607361000031,25.823091098000077],[31.525817601000028,25.823447590000058],[31.543014400000061,25.824160388000053],[31.560188805000053,25.825229120000074],[31.577331873000048,25.826653231000023],[31.594434678000027,25.828431978000026],[31.611488313000052,25.830564434000053],[31.628483896000034,25.833049490000064],[31.645412572000055,25.835885849000078],[31.662265521000052,25.839072036000061],[31.679033959000037,25.842606388000036],[31.69570914600007,25.846487066000066],[31.712282386000027,25.850712046000069],[31.728745035000031,25.855279128000063],[31.745088502000044,25.860185929000068],[31.761304256000074,25.865429893000055],[31.777383830000076,25.871008285000073],[31.793318825000028,25.876918197000066],[31.80910091100003,25.883156548000045],[31.824721837000027,25.889720083000043],[31.840173431000039,25.89660537900005],[31.855447605000052,25.903808844000025],[31.870536359000027,25.911326718000055],[31.885431786000026,25.919155079000063],[31.898549839000054,25.926417235000031],[31.894385030000024,25.912536094000075],[31.890258477000032,25.897409551000067],[31.886518871000078,25.882200996000051],[31.883168050000052,25.866918515000066],[31.880207643000062,25.851570227000025],[31.877639072000079,25.836164285000052],[31.875463546000049,25.820708867000064],[31.873682067000061,25.805212178000033],[31.87229542700004,25.789682438000057],[31.871304205000058,25.774127884000052],[31.870708773000047,25.758556760000033],[31.870509291000076,25.742977319000033],[31.870705709000049,25.727397813000039],[31.87129776900008,25.711826491000068],[31.872285004000048,25.696271596000031],[31.873666736000075,25.680741357000045],[31.875442083000053,25.665243989000032],[31.877609953000047,25.649787685000035],[31.880169049000074,25.634380613000076],[31.883117871000024,25.619030914000064],[31.886454711000056,25.603746693000062],[31.890177662000042,25.58853601900006],[31.894284612000035,25.573406919000035],[31.898773253000059,25.558367374000056],[31.903641075000053,25.543425314000046],[31.908885373000032,25.528588616000036],[31.914503246000038,25.513865098000053],[31.920491600000048,25.499262515000055],[31.926847148000036,25.484788557000059],[31.933566416000076,25.470450843000037],[31.940645739000047,25.456256918000065],[31.948081270000046,25.442214246000049],[31.95586897700008,25.428330214000027],[31.964004647000024,25.414612119000026],[31.972483890000035,25.401067170000033],[31.981302138000046,25.387702483000055],[31.990454650000061,25.374525077000044],[31.999936517000037,25.361541869000064],[32.00974265800005,25.348759673000075],[32.019867830000067,25.336185196000031],[32.030306625000037,25.323825034000038],[32.041053477000048,25.311685667000063],[32.052102664000074,25.29977346000004],[32.063448311000059,25.288094655000066],[32.075084390000029,25.276655370000071],[32.087004729000057,25.265461598000059],[32.099203011000043,25.254519200000061],[32.111672780000049,25.243833904000041],[32.124407441000074,25.233411303000025],[32.137400267000032,25.223256850000041],[32.150644401000079,25.213375858000063],[32.164132859000063,25.203773493000028],[32.177858534000052,25.194454777000033],[32.191814202000046,25.185424581000063],[32.205992520000052,25.176687626000046],[32.220386038000072,25.168248475000041],[32.234987194000041,25.160111540000059],[32.243836653000074,25.155429773000037],[32.245367110000075,25.154486496000061],[32.25975799400004,25.146047281000051],[32.27435648200003,25.137910282000064],[32.289154912000072,25.13007975000005],[32.304145520000077,25.122559773000035],[32.319320449000031,25.11535427900003],[32.334671747000073,25.108467030000043],[32.350191376000055,25.101901620000035],[32.365871214000038,25.095661476000032],[32.381703057000038,25.089749854000047],[32.397678628000051,25.084169839000026],[32.413789578000035,25.07892434200005],[32.430027489000054,25.074016098000072],[32.446383882000077,25.069447669000056],[32.462850217000039,25.065221436000058],[32.47941790200008,25.061339604000068],[32.49607829100006,25.057804195000074],[32.512822696000057,25.054617054000062],[32.529642385000045,25.05177984200003],[32.546528590000037,25.049294038000028],[32.563472507000029,25.047160937000058],[32.580465307000054,25.045381653000049],[32.597498135000023,25.043957111000054],[32.614562116000059,25.042888054000059],[32.631648361000032,25.042175040000075],[32.648747969000055,25.041818440000043],[32.665852031000043,25.041818440000043],[32.682951639000066,25.042175040000075],[32.700037884000039,25.042888054000059],[32.717101865000075,25.043957111000054],[32.734134693000044,25.045381653000049],[32.75112749300007,25.047160937000058],[32.768071410000061,25.049294038000028],[32.784957615000053,25.05177984200003],[32.801777304000041,25.054617054000062],[32.818521709000038,25.057804195000074],[32.835182098000075,25.061339604000068],[32.851749783000059,25.065221436000058],[32.868216118000078,25.069447669000056],[32.884572511000044,25.074016098000072],[32.900810422000063,25.07892434200005],[32.916921372000047,25.084169839000026],[32.93289694300006,25.089749854000047],[32.948728786000061,25.095661476000032],[32.964408624000043,25.101901620000035],[32.979928253000026,25.108467030000043],[32.995279551000067,25.11535427900003],[33.010454480000078,25.122559773000035],[33.025445088000026,25.13007975000005],[33.040243518000068,25.137910282000064],[33.054842006000058,25.146047281000051],[33.069232890000023,25.154486496000061],[33.083408612000028,25.163223519000042],[33.097361719000048,25.172253782000041],[33.111084873000038,25.181572568000036],[33.124570849000065,25.191175004000058],[33.137812542000063,25.201056068000071],[33.150802970000029,25.211210595000068],[33.163535276000061,25.221633270000041],[33.176002735000054,25.232318642000052],[33.188198754000041,25.243261116000042],[33.200116877000028,25.254454965000036],[33.211750788000074,25.265894328000059],[33.223094315000026,25.27757321100006],[33.234141435000026,25.289485497000044],[33.244886271000041,25.301624943000036],[33.255323103000023,25.313985185000035],[33.265446365000059,25.32655974100004],[33.275250653000057,25.339342016000046],[33.284730721000074,25.352325303000043],[33.293881493000072,25.365502789000061],[33.302698058000033,25.378867555000056],[33.311175677000051,25.392412582000077],[33.319309784000041,25.40613075400006],[33.327095988000053,25.420014864000052],[33.334530079000046,25.434057611000071],[33.341608024000038,25.448251613000025],[33.348325978000048,25.462589402000049],[33.354680276000067,25.477063433000069],[33.360667445000047,25.491666089000034],[33.366284199000063,25.506389678000062],[33.371527445000027,25.52122644700006],[33.376394283000025,25.536168576000023],[33.380882007000025,25.551208188000032],[33.384988110000052,25.566337354000041],[33.388710282000034,25.581548093000038],[33.392046414000049,25.596832377000055],[33.39499459700005,25.612182137000048],[33.397553127000037,25.627589268000065],[33.399720501000047,25.643045630000074],[33.401495424000075,25.658543055000052],[33.402876805000062,25.674073348000036],[33.403863760000036,25.689628295000034],[33.404455614000028,25.705199667000045],[33.404651900000033,25.720779222000033],[33.404452358000071,25.736358710000047],[33.403856940000026,25.751929878000055],[33.402865807000069,25.76748447500006],[33.40147932900004,25.783014255000069],[33.399698086000058,25.798510983000028],[33.397522871000035,25.813966436000044],[33.394954684000027,25.829372413000044],[33.391994737000061,25.844720733000031],[33.388644448000036,25.86000324400004],[33.38490544900003,25.875211827000044],[33.380779577000055,25.890338396000061],[33.376268879000065,25.905374909000045],[33.371375607000061,25.920313367000062],[33.366102220000073,25.935145820000059],[33.360451385000033,25.949864372000036],[33.354425968000044,25.964461185000062],[33.348029042000064,25.978928481000025],[33.341263879000053,25.993258552000043],[33.334133953000048,26.007443757000033],[33.326642934000063,26.021476530000029],[33.31879469200004,26.035349385000075],[33.310593288000064,26.049054918000024],[33.302042979000078,26.06258581000003],[33.293148211000073,26.075934836000044],[33.283913619000032,26.08909486400006],[33.274344027000041,26.102058859000067],[33.264444438000055,26.114819890000035],[33.254220042000043,26.127371134000043],[33.243676204000053,26.13970587600005],[33.232818466000026,26.151817513000026],[33.221652544000051,26.163699563000023],[33.210184326000046,26.17534566300003],[33.198419863000026,26.186749574000032],[33.186365375000037,26.197905186000071],[33.174027239000054,26.208806520000053],[33.161411993000058,26.219447731000059],[33.14852632700007,26.229823113000066],[33.135377081000058,26.239927100000045],[33.121971244000065,26.249754271000029],[33.108315947000051,26.259299350000049],[33.094418462000078,26.268557215000044],[33.080286192000074,26.277522893000025],[33.065926678000039,26.286191570000028],[33.051347582000062,26.294558588000029],[33.036556694000069,26.302619450000066],[33.034518286000036,26.303673045000039],[33.026704498000072,26.308389260000069],[33.012122654000052,26.316756292000036],[32.997328973000037,26.324817168000038],[32.982331364000061,26.332567558000051],[32.967137851000075,26.340003293000052],[32.951756565000039,26.347120376000078],[32.936195747000056,26.353914979000024],[32.920463736000045,26.36038344800005],[32.904568967000046,26.366522303000067],[32.888519971000051,26.372328240000058],[32.872325361000037,26.377798135000035],[32.855993835000049,26.382929043000047],[32.839534168000057,26.387718203000077],[32.822955207000064,26.392163037000046],[32.806265867000036,26.396261150000043],[32.789475125000024,26.400010336000037],[32.772592015000043,26.403408575000071],[32.75562562500005,26.406454038000049],[32.738585088000036,26.409145084000045],[32.72147958100004,26.411480263000044],[32.704318316000069,26.41345831700005],[32.68711053800007,26.415078180000023],[32.669865518000051,26.416338979000045],[32.65259254800003,26.417240036000067],[32.635300936000078,26.417780864000065],[32.618000000000052,26.417961173000037],[32.600699064000025,26.417780864000065],[32.583407452000074,26.417240036000067],[32.566134482000052,26.416338979000045],[32.548889462000034,26.415078180000023],[32.531681684000034,26.41345831700005],[32.514520419000064,26.411480263000044],[32.497414912000067,26.409145084000045],[32.480374375000054,26.406454038000049],[32.46340798500006,26.403408575000071],[32.44652487500008,26.400010336000037],[32.429734133000068,26.396261150000043],[32.41304479300004,26.392163037000046],[32.396465832000047,26.387718203000077],[32.380006165000054,26.382929043000047],[32.363674639000067,26.377798135000035],[32.347480029000053,26.372328240000058],[32.331431033000058,26.366522303000067],[32.315536264000059,26.36038344800005],[32.299804253000048,26.353914979000024],[32.284243435000064,26.347120376000078],[32.268862149000029,26.340003293000052],[32.253668636000043,26.332567558000051],[32.238671027000066,26.324817168000038],[32.223877346000052,26.316756292000036],[32.223614119000047,26.316605253000034],[32.223850655000035,26.317326113000036]]],[[[31.224873771000034,29.193421525000076],[31.242616704000056,29.193777530000034],[31.260345817000029,29.194489354000041],[31.278051904000051,29.19555662700003],[31.295725771000036,29.196978797000043],[31.313358237000045,29.198755122000023],[31.330940145000056,29.200884681000048],[31.348462360000042,29.203366368000047],[31.365915777000055,29.206198892000032],[31.383291326000062,29.20938078100005],[31.400579974000038,29.212910383000064],[31.417772729000035,29.216785862000052],[31.43486064800004,29.22100520500004],[31.45183484000006,29.22556621800004],[31.468686467000055,29.230466529000068],[31.485406754000053,29.23570359100006],[31.501986989000045,29.241274679000071],[31.518418528000041,29.247176897000031],[31.534692801000062,29.253407174000074],[31.550801316000047,29.259962268000038],[31.566735662000042,29.266838768000071],[31.582487513000046,29.274033096000039],[31.598048634000065,29.281541505000064],[31.613410884000075,29.289360086000045],[31.628566219000049,29.297484768000061],[31.643506698000067,29.305911318000028],[31.658224487000041,29.314635345000056],[31.672711860000049,29.323652303000074],[31.68696120900006,29.332957492000048],[31.700965040000028,29.342546059000028],[31.714715983000076,29.352413004000027],[31.728206794000073,29.362553179000031],[31.74143035700007,29.37296129200007],[31.754379689000075,29.383631910000076],[31.767047947000037,29.394559462000075],[31.779428425000049,29.405738241000051],[31.791514562000032,29.417162405000056],[31.803299944000059,29.428825984000071],[31.814778309000076,29.440722880000067],[31.825943547000065,29.452846872000066],[31.836789708000026,29.465191616000027],[31.847311001000037,29.477750653000044],[31.857501799000033,29.490517407000027],[31.867356642000061,29.503485192000028],[31.876870241000063,29.516647215000035],[31.88603747600007,29.529996577000077],[31.894853408000074,29.543526280000037],[31.903313273000037,29.55722922700005],[31.911412488000053,29.571098229000029],[31.919146656000066,29.585126005000063],[31.926511565000055,29.599305191000042],[31.933503191000057,29.613628336000033],[31.940117702000066,29.628087914000048],[31.946351461000063,29.642676322000057],[31.952201024000033,29.657385889000068],[31.957663146000073,29.672208872000056],[31.962734781000051,29.687137470000039],[31.967413087000068,29.702163821000056],[31.971695422000039,29.717280007000056],[31.975579353000057,29.732478061000052],[31.979062651000049,29.747749968000051],[31.982143296000061,29.763087671000051],[31.984819479000066,29.778483076000043],[31.987089601000037,29.793928052000069],[31.988952276000077,29.809414441000058],[31.990406331000031,29.824934058000053],[31.991450809000071,29.840478697000037],[31.99208496600005,29.856040135000057],[31.992308277000063,29.871610136000072],[31.992120431000046,29.887180456000067],[31.991521336000062,29.90274284700007],[31.990511118000029,29.918289063000032],[31.989090121000061,29.933810859000062],[31.987258909000047,29.949300003000076],[31.98501826100005,29.964748275000034],[31.982369177000066,29.980147471000066],[31.979312877000041,29.995489414000076],[31.975850795000042,30.010765949000074],[31.971984587000065,30.025968954000064],[31.967716124000049,30.041090344000054],[31.963047494000079,30.056122070000072],[31.957981001000064,30.071056131000034],[31.952519166000059,30.085884571000065],[31.946664722000037,30.100599489000047],[31.94042061500005,30.115193041000055],[31.933790004000059,30.129657443000042],[31.926776259000064,30.143984978000049],[31.919382958000028,30.158167996000032],[31.911613886000055,30.172198925000032],[31.903473035000047,30.186070267000048],[31.894964600000037,30.199774608000041],[31.886092979000068,30.213304620000031],[31.87686276900007,30.226653067000029],[31.867278765000037,30.239812803000063],[31.857345957000064,30.252776784000048],[31.847069529000066,30.265538066000033],[31.836454853000077,30.278089812000076],[31.825507491000053,30.290425294000045],[31.814233190000039,30.302537897000036],[31.802637876000063,30.314421125000024],[31.790727658000037,30.326068599000052],[31.778508817000045,30.337474069000052],[31.76598781000007,30.348631409000063],[31.753171259000055,30.359534625000038],[31.740065956000024,30.370177859000023],[31.726678853000067,30.380555389000051],[31.713017059000038,30.390661635000072],[31.699087839000072,30.400491162000037],[31.684898611000051,30.410038679000024],[31.670456935000061,30.419299049000074],[31.655770517000065,30.428267285000061],[31.640847200000053,30.436938559000055],[31.625694962000068,30.445308198000077],[31.610321910000039,30.453371695000044],[31.594736276000049,30.461124701000074],[31.57894641300004,30.46856303800007],[31.562960791000023,30.475682696000035],[31.546787990000041,30.48247983300007],[31.530436698000074,30.488950783000064],[31.513915703000066,30.495092055000043],[31.497233890000075,30.50090033400005],[31.480400239000062,30.506372485000043],[31.46342381200003,30.511505554000053],[31.446313756000052,30.516296769000064],[31.42907929200004,30.520743543000037],[31.411729715000035,30.524843473000033],[31.394274384000028,30.528594345000045],[31.376722719000043,30.531994133000069],[31.359084194000047,30.535040999000046],[31.341368335000027,30.537733297000045],[31.32358471200007,30.54006957200005],[31.305742932000044,30.542048561000058],[31.287852637000071,30.543669195000064],[31.269923497000036,30.544930598000064],[31.251965203000054,30.545832087000065],[31.233987464000052,30.546373175000042],[31.216000000000065,30.546553571000061],[31.198012536000078,30.546373175000042],[31.180034797000076,30.545832087000065],[31.162076503000037,30.544930598000064],[31.144147363000059,30.543669195000064],[31.126257068000029,30.542048561000058],[31.10841528800006,30.54006957200005],[31.090631665000046,30.537733297000045],[31.072915806000026,30.535040999000046],[31.055277281000031,30.531994133000069],[31.037725616000046,30.528594345000045],[31.020270285000038,30.524843473000033],[31.002920708000033,30.520743543000037],[30.985686244000078,30.516296769000064],[30.968576188000043,30.511505554000053],[30.951599761000068,30.506372485000043],[30.934766110000055,30.50090033400005],[30.918084297000064,30.495092055000043],[30.901563302000056,30.488950783000064],[30.885212010000032,30.48247983300007],[30.86903920900005,30.475682696000035],[30.853053587000034,30.46856303800007],[30.837263724000024,30.461124701000074],[30.821678090000034,30.453371695000044],[30.806305038000062,30.445308198000077],[30.791152800000077,30.436938559000055],[30.776229483000066,30.428267285000061],[30.761543065000069,30.419299049000074],[30.747101389000079,30.410038679000024],[30.732912161000058,30.400491162000037],[30.718982941000036,30.390661635000072],[30.705321147000063,30.380555389000051],[30.69193404400005,30.370177859000023],[30.678828741000075,30.359534625000038],[30.66601219000006,30.348631409000063],[30.653491183000028,30.337474069000052],[30.641272342000036,30.326068599000052],[30.629362124000068,30.314421125000024],[30.617766810000035,30.302537897000036],[30.606492509000077,30.290425294000045],[30.595545147000053,30.278089812000076],[30.584930471000064,30.265538066000033],[30.574654043000066,30.252776784000048],[30.564721235000036,30.239812803000063],[30.55513723100006,30.226653067000029],[30.545907021000062,30.213304620000031],[30.537035400000036,30.199774608000041],[30.528526965000026,30.186070267000048],[30.520386114000075,30.172198925000032],[30.512617042000045,30.158167996000032],[30.505223741000066,30.143984978000049],[30.498209996000071,30.129657443000042],[30.49157938500008,30.115193041000055],[30.485335278000036,30.100599489000047],[30.479480834000071,30.085884571000065],[30.474018999000066,30.071056131000034],[30.468952506000051,30.056122070000072],[30.464283876000025,30.041090344000054],[30.460015413000065,30.025968954000064],[30.456149205000031,30.010765949000074],[30.452687123000032,29.995489414000076],[30.449630823000064,29.980147471000066],[30.446981739000023,29.964748275000034],[30.444741091000026,29.949300003000076],[30.442909879000069,29.933810859000062],[30.441488882000044,29.918289063000032],[30.440478664000068,29.90274284700007],[30.439879569000027,29.887180456000067],[30.439691723000067,29.871610136000072],[30.439915034000023,29.856040135000057],[30.440549191000059,29.840478697000037],[30.441593669000042,29.824934058000053],[30.443047724000053,29.809414441000058],[30.444910399000037,29.793928052000069],[30.447180521000064,29.778483076000043],[30.449856704000069,29.763087671000051],[30.452937349000024,29.747749968000051],[30.456420647000073,29.732478061000052],[30.460304578000034,29.717280007000056],[30.464586913000062,29.702163821000056],[30.469265219000079,29.687137470000039],[30.474336854000057,29.672208872000056],[30.479798976000041,29.657385889000068],[30.485648539000067,29.642676322000057],[30.491882298000064,29.628087914000048],[30.498496809000073,29.613628336000033],[30.505488435000075,29.599305191000042],[30.512853344000064,29.585126005000063],[30.520587512000077,29.571098229000029],[30.528686727000036,29.55722922700005],[30.537146592000056,29.543526280000037],[30.545962524000061,29.529996577000077],[30.555129759000067,29.516647215000035],[30.564643358000069,29.503485192000028],[30.57449820100004,29.490517407000027],[30.584688999000036,29.477750653000044],[30.595210292000047,29.465191616000027],[30.606056453000065,29.452846872000066],[30.617221691000054,29.440722880000067],[30.628700056000071,29.428825984000071],[30.640485438000042,29.417162405000056],[30.652571575000024,29.405738241000051],[30.664952053000036,29.394559462000075],[30.677620311000055,29.383631910000076],[30.69056964300006,29.37296129200007],[30.703793206000057,29.362553179000031],[30.717284017000054,29.352413004000027],[30.731034960000045,29.342546059000028],[30.74503879100007,29.332957492000048],[30.759288140000024,29.323652303000074],[30.773775513000032,29.314635345000056],[30.788493302000063,29.305911318000028],[30.803433781000024,29.297484768000061],[30.818589116000055,29.289360086000045],[30.833951366000065,29.281541505000064],[30.849512487000027,29.274033096000039],[30.865264338000031,29.266838768000071],[30.881198684000026,29.259962268000038],[30.897307199000068,29.253407174000074],[30.913581472000033,29.247176897000031],[30.930013011000028,29.241274679000071],[30.946593246000077,29.23570359100006],[30.963313533000075,29.230466529000068],[30.98016516000007,29.22556621800004],[30.997139352000033,29.22100520500004],[31.014227271000038,29.216785862000052],[31.031420026000035,29.212910383000064],[31.048708674000068,29.20938078100005],[31.066084223000075,29.206198892000032],[31.083537640000031,29.203366368000047],[31.101059855000074,29.200884681000048],[31.118641763000028,29.198755122000023],[31.136274229000037,29.196978797000043],[31.153948096000079,29.19555662700003],[31.171654183000044,29.194489354000041],[31.189383296000074,29.193777530000034],[31.207126229000039,29.193421525000076],[31.224873771000034,29.193421525000076]]]]},"properties":{"OBJECTID":1,"Shape_Length":12.59053235591518,"Shape_Area":4.8689099071368238}}]}