{"type":"FeatureCollection","features":[{"type":"Feature","id":1,"geometry":{"type":"Point","coordinates":[45.638760180000077,31.324029500000051]},"properties":{"OBJECTID":1,"id":1,"name":"First Evidence","latitude":31.324029500000002,"longitude":45.638760179999998,"description":"The oldest depiction of a lute-type instrument. Found in the Southern Mesopotamia, Cylinder Seal of the Uruk Period, 3000 BCE (Late Uruk, Uruk III) (British Museum Online Collection, Inv. No: 141632).  \u003cbr\u003e \u003cbr\u003e \u003cimg src=images/001-ANT-MES-V.png width=\\\"200\\\"\u003e \u003cbr\u003e \u003cbr\u003e","period":"Antiquity","data_type":"Visual Document","century":"31st Century BCE","geography":"Mesopotamia","culture":"Uruk - Ancient Mesopotamian","neck_length":"Long Necked","soundbox_type":"Bowl","material":"Unknown","string_count":"Unknown","tuning_info":"Unknown","fret_info":"Unknown","visual_design":"No Design","performance_type":"Religious Based Context/Performance","right_hand_tech":"Unknown","left_hand_tech":"Unknown","handedness":"Right Handed","plectrum_tech":"Unknown","posture":"Seated","performance_mode":"Solo","semantic":"N/A","gender":"Female (Not Certain)","location_info":"Boat","century_num":-31,"date_start_num":-3100,"date_end_num":-3001,"date_mid_num":-3050,"modern_country":"Iraq","citation":"British Museum Online Collection","record_id":"001-ANT-MES-V\nAncient/Antquity-Mesopotamia-001-Visual","player_count":1,"has_image":"Yes","gender_certainty":"Not Certain","image_filename":"001-ANT-MES-V.png"}},{"type":"Feature","id":2,"geometry":{"type":"Point","coordinates":[44.638760180000077,32.324029500000051]},"properties":{"OBJECTID":2,"id":2,"name":"Akkadian Lute I","latitude":32.324029500000002,"longitude":44.638760179999998,"description":"One of the oldest lute player depiction. Dates back to 2400-2200 BCE and said to be a product of Akkadian (Ancient Mesopotamian) (British Museum Online Collection, Inv. No: 28806) \u003cbr\u003e \u003cbr\u003e \u003cimg src=images/002-ANT-MES-V.png width=\\\"200\\\"\u003e \u003cbr\u003e \u003cbr\u003e","period":"Antiquity","data_type":"Visual Document","century":"25th Century BCE","geography":"Mesopotamia","culture":"Akkad - Ancient Mesopotamian","neck_length":"Long Necked","soundbox_type":"Bowl","material":"Unknown","string_count":"Unknown","tuning_info":"Unknown","fret_info":"Unknown","visual_design":"Unknown","performance_type":"Religious Based Context/Performance","right_hand_tech":"Unknown","left_hand_tech":"Unknown","handedness":"Left Handed","plectrum_tech":"Unknown","posture":"Seated","performance_mode":"Solo","semantic":"N/A","gender":"Male (Certain)","location_info":"Non-specific","century_num":-25,"date_start_num":-2500,"date_end_num":-2401,"date_mid_num":-2450,"modern_country":"Iraq","citation":"R. Dumbrill \"Musical_Scenes_and_Instruments_on_seals.\".; Bibliography: Boehmer, R.M., Die Entwicklung der Glyptik wahrend der Akkad-Zeit, 4, Berlin, (1965); Collon, D., Catalogue\nof the Western Asiatic Seals in the British Museum: Cylinder Seals II: Akkadian, Post Akkadian, Ur III Periods, II, London, British\nMuseum Publications, (1982); Rimmer, J., Ancient musical instruments of Western Asia, London, British Museum, (1969).\nFig. 82. BM 28806.\nMusical Scenes and Instruments on Cylinder Seals from the Ancient Near East\n46","record_id":"002-ANT-MES-V","player_count":1,"has_image":"Yes","gender_certainty":"Certain","image_filename":"002-ANT-MES-V.png"}},{"type":"Feature","id":3,"geometry":{"type":"Point","coordinates":[44.638760180000077,33.324029500000051]},"properties":{"OBJECTID":3,"id":3,"name":"Akkadian Lute II","latitude":33.324029500000002,"longitude":44.638760179999998,"description":"Cylinder Seal of the Akkadian Period, 2500-2000 BCE. (89096) \u003cbr\u003e \u003cbr\u003e \u003cimg src=images/003-ANT-MES-V.png width=\\\"200\\\"\u003e \u003cbr\u003e \u003cbr\u003e","period":"Antiquity","data_type":"Visual Document","century":"25th Century BCE","geography":"Mesopotamia","culture":"Akkad - Ancient Mesopotamian","neck_length":"Long Necked","soundbox_type":"Bowl","material":"Unknown","string_count":"Unknown","tuning_info":"Unknown","fret_info":"Unknown","visual_design":"No Design","performance_type":"Religious Based Context/Performance","right_hand_tech":"Unknown","left_hand_tech":"Unknown","handedness":"Right Handed","plectrum_tech":"Unknown","posture":"Seated","performance_mode":"Solo","semantic":"Inscription transliteration: UR.UR / nar.\nInscription translation: PN, singer.","gender":"Male (Certain)","location_info":"Non-specific","century_num":-25,"date_start_num":-2500,"date_end_num":-2401,"date_mid_num":-2450,"modern_country":"Iraq","citation":"British Museum Online Collection","record_id":"003-ANT-MES-V","player_count":1,"has_image":"Yes","gender_certainty":"Certain","image_filename":"003-ANT-MES-V.png"}},{"type":"Feature","id":4,"geometry":{"type":"Point","coordinates":[43.586947640000062,32.902052810000043]},"properties":{"OBJECTID":4,"id":4,"name":"Shepherd I","latitude":32.902052810000001,"longitude":43.586947639999998,"description":"Iraq, Shepherd playing a long-necked stringed instrument, 2025-1763 BCE, plates probably from the same mold as Shepherd II. (The Penn Museum Online Collection, Inv. Nos. L-29-303). \u003cbr\u003e \u003cbr\u003e \u003cimg src=images/004-ANT-MES-V.png width=\\\"200\\\"\u003e \u003cbr\u003e \u003cbr\u003e","period":"Antiquity","data_type":"Visual Document","century":"21st Century BCE","geography":"Mesopotamia","culture":"Babylonian - Ancient Mesopotamian","neck_length":"Long Necked","soundbox_type":"Bowl","material":"Unknown","string_count":"Unknown","tuning_info":"Unknown","fret_info":"Unknown","visual_design":"No Design","performance_type":"Secular Context/Performance","right_hand_tech":"Unknown","left_hand_tech":"Unknown","handedness":"Right Handed","plectrum_tech":"Unknown","posture":"Seated","performance_mode":"Solo","semantic":"N/A","gender":"Male (Not Certain)","location_info":"Possible Farm","century_num":-21,"date_start_num":-2100,"date_end_num":-2001,"date_mid_num":-2050,"modern_country":"Iraq","citation":"Penn Museum.; Polin, Claire C.\u00A0Gifts of Jubal: Musical Instruments from the Ancient East. Philadelphia: The University Museum, 07 Apr 1954. See: figure VIII","record_id":"004-ANT-MES-V","player_count":1,"has_image":"Yes","gender_certainty":"Not Certain","image_filename":"004-ANT-MES-V.png"}},{"type":"Feature","id":5,"geometry":{"type":"Point","coordinates":[43.586947640000062,34.902052810000043]},"properties":{"OBJECTID":5,"id":5,"name":"Shepherd II","latitude":34.902052810000001,"longitude":43.586947639999998,"description":"Iraq, Shepherd playing a long-necked stringed instrument, 2025-1763 BCE, plates probably from the same mold as Shepherd I. (The Penn Museum Online Collection, Inv. Nos. 53-11-90). \u003cbr\u003e \u003cbr\u003e \u003cimg src=images/005-ANT-MES-V.png width=\\\"200\\\"\u003e \u003cbr\u003e \u003cbr\u003e","period":"Antiquity","data_type":"Visual Document","century":"21st Century BCE","geography":"Mesopotamia","culture":"Ancient Mesopotamian","neck_length":"Long Necked","soundbox_type":"Bowl","material":"Unknown","string_count":"Unknown","tuning_info":"Unknown","fret_info":"Unknown","visual_design":"No Design","performance_type":"Secular Context/Performance","right_hand_tech":"Unknown","left_hand_tech":"Unknown","handedness":"Right Handed","plectrum_tech":"Unknown","posture":"Seated","performance_mode":"Solo","semantic":"N/A","gender":"Male (Not Certain)","location_info":"Possible Farm","century_num":-21,"date_start_num":-2100,"date_end_num":-2001,"date_mid_num":-2050,"modern_country":"Iraq","citation":"Penn Museum.","record_id":"005-ANT-MES-V","player_count":1,"has_image":"Yes","gender_certainty":"Not Certain","image_filename":"005-ANT-MES-V.png"}},{"type":"Feature","id":6,"geometry":{"type":"Point","coordinates":[44.354118980000067,33.372918110000057]},"properties":{"OBJECTID":6,"id":6,"name":"A Possible Tuning Peg Example","latitude":33.372918110000001,"longitude":44.354118980000003,"description":"The long necked lute example on this stamped terracotta has a possibility of showing an evidence for the earliest \"peg\" depiction. Image is restricted and is \"not for reproduction\" (Stony Brook University, Academic Commons, Archive of Mesopotamian Archaeological Reports - AMAR).","period":"Antiquity","data_type":"Visual Document","century":"10th Century BCE","geography":"Mesopotamia","culture":"Assyrian - Ancient Mesopotamian","neck_length":"Long Necked","soundbox_type":"Bowl","material":"Unknown","string_count":"Unknown","tuning_info":"1/2 Possible Tuning Peg/s","fret_info":"Unknown","visual_design":"No Design","performance_type":"Secular Context/Performance","right_hand_tech":"Unknown","left_hand_tech":"Unknown","handedness":"Right Handed","plectrum_tech":"Unknown","posture":"Standing","performance_mode":"Solo","semantic":"N/A","gender":"Male (Certain)","location_info":"Non-specific","century_num":-10,"date_start_num":-1000,"date_end_num":-901,"date_mid_num":-950,"modern_country":"Iraq","citation":"Ziegler, Charlotte, \"Die terrakotten von Warka\" (1962). Archive of Mesopotamian Archaeological Reports (AMAR). 57.\nhttps://commons.library.stonybrook.edu/amar/57\nStony Brook University\nAcademic Commons\nArchive of Mesopotamian Archaeological\nReports (AMAR) ","record_id":"0","player_count":1,"has_image":"No","gender_certainty":"Certain","image_filename":null}},{"type":"Feature","id":7,"geometry":{"type":"Point","coordinates":[48.258527890000039,32.189461030000075]},"properties":{"OBJECTID":7,"id":7,"name":"Suse Figurines I","latitude":32.189461029999997,"longitude":48.258527890000003,"description":"A nude, bearded, male lute player depicted on terracotta. Found in the context of Elamite Culture in the city of Suse/Susa - Iran. Said to be dating back to  \u003cbr\u003e \u003cbr\u003e \u003cimg src=images/007-ANT-SUS-V.png width=\\\"200\\\"\u003e \u003cbr\u003e \u003cbr\u003e","period":"Antiquity","data_type":"Visual Document","century":"15th Century BCE","geography":"Susiana (Elam)","culture":"Middle Elamite / Susa-Susiana","neck_length":"Long Necked","soundbox_type":"Bowl","material":"Unknown","string_count":"2","tuning_info":"Unknown","fret_info":"Unknown","visual_design":"No Design","performance_type":"Secular Context/Performance","right_hand_tech":"Unknown","left_hand_tech":"Unknown","handedness":"Right Handed","plectrum_tech":"Unknown","posture":"Standing","performance_mode":"Solo","semantic":"N/A","gender":"Male (Certain)","location_info":"Non-specific","century_num":-15,"date_start_num":-1500,"date_end_num":-1401,"date_mid_num":-1450,"modern_country":"Iran","citation":" Spycket, Agnès, Mission de Susiane. Ville Royale de Suse VI. Les figurines de Suse (MDP 52), Vol. I, Les figurines humaines. IVe-IIe millénaires av. J.-C., Paris, Gabalda, (Mémoires de la Délégation archéologique en Iran, LII), 1992, p. 208, n° 1301\n Amiet, Pierre (dir.), Art et Histoire de l'Iran avant Islam. Collections du musée du Louvre, 1978, n° 108\n Opificius, Ruth, Das Altbabylonische Terrakottarelief, Berlin, Walter de Gruyter, (Untersuchungen zur Assyriologie und Vorderasiatischen Archäologie (Ergänzungsbande zur Zeitschrift für Assyriologie und Vorderasiatische Archäologie neue Folge) UAVA, 2), 1961, p. 194, n° 718\n Rutten, Marguerite, « Scènes de musique et de danse (Musée du Louvre - Antiquités orientales) », Revue des Arts asiatiques, 9, 4, 1935, p. 218-224, Disponible sur : https://gallica.bnf.fr/ark:/12148/bpt6k97733613 ; https://www.jstor.org/stable/43474947 , p. 222, fig. 15","record_id":"007-ANT-SUS-V","player_count":1,"has_image":"Yes","gender_certainty":"Certain","image_filename":"007-ANT-SUS-V.png"}},{"type":"Feature","id":8,"geometry":{"type":"Point","coordinates":[44.06148107000007,34.319223830000055]},"properties":{"OBJECTID":8,"id":8,"name":"Seven Warriors","latitude":34.319223829999999,"longitude":44.061481069999999,"description":"“Unfinished” Kudurru, Kassite period, attributed to the reign of Melishipak, 1186–1172 B.C.E., found in Susa, where it had been taken as war booty in the 12th century B.C.E. (Louvre, Paris; photo:\u00A0Steven Zucker [https://flic.kr/p/osBGkR] , CC BY-NC-SA 2.0).\nDetail of one of seven warrior-lutenists, register 2/4 of carved limestone kudurru. Kassite period, Reign of Melišippak II, c. 1186-1172 BC.  \u003cbr\u003e \u003cbr\u003e \u003cimg src=images/008-ANT-MES-V.png width=\\\"200\\\"\u003e \u003cbr\u003e \u003cbr\u003e","period":"Antiquity","data_type":"Visual Document","century":"12th Century BCE","geography":"Mesopotamia","culture":"Babylonian - Ancient Mesopotamian","neck_length":"Long Necked","soundbox_type":"Bowl","material":"Unknown","string_count":"Unknown","tuning_info":"1/2 Possible Tuning Peg/s","fret_info":"Unknown","visual_design":"No Design","performance_type":"Religious Based Context/Performance","right_hand_tech":"Unknown","left_hand_tech":"Unknown","handedness":"Right Handed","plectrum_tech":"Unknown","posture":"Standing","performance_mode":"Collective","semantic":"N/A","gender":"Male (Certain)","location_info":"Non-specific","century_num":-12,"date_start_num":-1200,"date_end_num":-1101,"date_mid_num":-1150,"modern_country":"Iraq","citation":"THE WARRIORS’ SONG:\nDEFINING THE ANCIENT ASSYRO-HITTITE\nLONG NECK LUTE (1550-629 BC)\nJeffrey P. Charest\n\nhttps://smarthistory.org/kassite-art-unfinished-kudurru/\nTop level: Mesopotamian Gods in symbolic form, second level: animals and deities playing musical instruments (detail), “Unfinished” Kudurru, Kassite period, attributed to the reign of Melishipak, 1186–1172 B.C.E., found in Susa, where it had been taken as war booty in the 12th century B.C.E. (Louvre, Paris; photo: Steven Zucker, CC BY-NC-SA 2.0)","record_id":"008-ANT-MES-V","player_count":7,"has_image":"Yes","gender_certainty":"Certain","image_filename":"008-ANT-MES-V.png"}},{"type":"Feature","id":9,"geometry":{"type":"Point","coordinates":[67.300499590000072,37.255128840000054]},"properties":{"OBJECTID":9,"id":9,"name":"Central Asia Evidences I","latitude":37.255128839999998,"longitude":67.300499590000001,"description":"Three musicians (a drummer, a lutenist and a harper) bordered by acanthus leaves, from the Airtam Frieze, an artwork in the Hermitage Museum in St. Petersburg, Russia. The artwork was originally part of the entrance to a Buddhist temple. \u003cbr\u003e \u003cbr\u003e \u003cimg src=images/009-ANT-CAS-V.png width=\\\"200\\\"\u003e \u003cbr\u003e \u003cbr\u003e","period":"Antiquity","data_type":"Visual Document","century":"1st Century BCE","geography":"Central Asia","culture":"Kushan Bactria ","neck_length":"Short Necked","soundbox_type":"Box","material":"Unknown","string_count":"4","tuning_info":"Unknown","fret_info":"Unknown","visual_design":"No Design","performance_type":"Religious Based Context/Performance","right_hand_tech":"Unknown","left_hand_tech":"Unknown","handedness":"Right Handed","plectrum_tech":"Unknown","posture":"Seated","performance_mode":"Collective","semantic":"N/A","gender":"Female (Certain)","location_info":"Temple","century_num":-1,"date_start_num":-100,"date_end_num":-1,"date_mid_num":-50,"modern_country":"Uzbekistan","citation":"https://en.wikipedia.org/wiki/Airtam_Frieze\nhttps://en.wikipedia.org/wiki/Archaeological_Museum_of_Termez#/media/File:Termez_Archaeological_Museum,_Termez,_Uzbekistan.jpg\nhttps://uz.kursiv.media/en/2025-08-25/buddhism-in-uzbekistan-forgotten-temples-treasures-and-ancient-discoveries/","record_id":"009-ANT-CAS-V","player_count":1,"has_image":"Yes","gender_certainty":"Certain","image_filename":"009-ANT-CAS-V.png"}},{"type":"Feature","id":10,"geometry":{"type":"Point","coordinates":[38.480371750000074,37.579915320000055]},"properties":{"OBJECTID":10,"id":10,"name":"First Evidence From Anatolia","latitude":37.579915319999998,"longitude":38.480371750000003,"description":"One of the oldest pieces of evidence regarding bağlama-type instruments found in Anatolia is a painted pottery fragment discovered in Samsat/Adıyaman (Dinçol 2003: 30).\n\nIt dates back to the Old Hittite State period, i.e., 1650-1620 BC (Sipahi 2004: 30-31). \u003cbr\u003e \u003cbr\u003e \u003cimg src=images/010-ANT-ANA-V.png width=\\\"200\\\"\u003e \u003cbr\u003e \u003cbr\u003e","period":"Antiquity","data_type":"Visual Document","century":"17th Century BCE","geography":"Anatolia","culture":"Hittite","neck_length":"Long Necked","soundbox_type":"Bowl","material":"Unknown","string_count":"Unknown","tuning_info":"Unknown","fret_info":"Unknown","visual_design":"No Design","performance_type":"Secular Context/Performance","right_hand_tech":"Unknown","left_hand_tech":"Unknown","handedness":"Right Handed","plectrum_tech":"Unknown","posture":"Standing","performance_mode":"Solo","semantic":"N/A","gender":"Male (Not Certain)","location_info":"Non-specific","century_num":-17,"date_start_num":-1700,"date_end_num":-1601,"date_mid_num":-1650,"modern_country":"Turkey","citation":null,"record_id":"010-ANT-ANA-V","player_count":1,"has_image":"Yes","gender_certainty":"Not Certain","image_filename":"010-ANT-ANA-V.png"}},{"type":"Feature","id":11,"geometry":{"type":"Point","coordinates":[33.562054520000061,40.408670220000033]},"properties":{"OBJECTID":11,"id":11,"name":"İnandık Vase","latitude":40.408670219999998,"longitude":33.562054519999997,"description":"The vase unearthed at İnandık Tepe, dating to approximately 1600 BC, depicts two separate lute-type instrument players (Dinçol 2003: 30-31).\n\nThe İnandık Vase, one of the famous examples of Hittite depiction and musical art, plays an important role as an indicator for the traces of the lute in Anatolia and among the Hittites. \u003cbr\u003e \u003cbr\u003e \u003cimg src=images/011-ANT-ANA-V.png width=\\\"200\\\"\u003e \u003cbr\u003e \u003cbr\u003e","period":"Antiquity","data_type":"Visual Document","century":"17th Century BCE","geography":"Anatolia","culture":"Hittite","neck_length":"Long Necked","soundbox_type":"Bowl","material":"Unknown","string_count":"Unknown","tuning_info":"Unknown","fret_info":"Unknown","visual_design":"No Design","performance_type":"Religious Based Context/Performance","right_hand_tech":"Unknown","left_hand_tech":"Unknown","handedness":"Right Handed","plectrum_tech":"Unknown","posture":"Standing","performance_mode":"Collective","semantic":"N/A","gender":"Male (Certain)","location_info":"Holy Wedding Ceramony","century_num":-17,"date_start_num":-1700,"date_end_num":-1601,"date_mid_num":-1650,"modern_country":"Turkey","citation":null,"record_id":"011-ANT-ANA-V","player_count":2,"has_image":"Yes","gender_certainty":"Certain","image_filename":"011-ANT-ANA-V.png"}},{"type":"Feature","id":12,"geometry":{"type":"Point","coordinates":[34.696912800000064,40.235184050000043]},"properties":{"OBJECTID":12,"id":12,"name":"Alacahöyük Orthostat","latitude":40.235184050000001,"longitude":34.6969128,"description":"The wall relief / orthostat found in Alacahöyük, Çorum, is noteworthy for its depiction of a lute-type instrument with tassels and frets.\n\nIts body form differs from that of contemporary tanbura-type instruments, exhibiting a more segmented structure. \u003cbr\u003e \u003cbr\u003e \u003cimg src=images/012-ANT-ANA-V.png width=\\\"200\\\"\u003e \u003cbr\u003e \u003cbr\u003e","period":"Antiquity","data_type":"Visual Document","century":"15th Century BCE","geography":"Anatolia","culture":"Hittite","neck_length":"Long Necked","soundbox_type":"Other","material":"Unknown","string_count":"Unknown","tuning_info":"Unknown","fret_info":"Possible Evidence","visual_design":"No Design","performance_type":"Secular Context/Performance","right_hand_tech":"Unknown","left_hand_tech":"Unknown","handedness":"Right Handed","plectrum_tech":"Unknown","posture":"Standing","performance_mode":"Collective","semantic":"N/A","gender":"Male (Not Certain)","location_info":"City Square","century_num":-15,"date_start_num":-1500,"date_end_num":-1401,"date_mid_num":-1450,"modern_country":"Turkey","citation":null,"record_id":"012-ANT-ANA-V","player_count":1,"has_image":"Yes","gender_certainty":"Not Certain","image_filename":"012-ANT-ANA-V.png"}},{"type":"Feature","id":13,"geometry":{"type":"Point","coordinates":[34.608218070000078,40.025024020000046]},"properties":{"OBJECTID":13,"id":13,"name":"Hittite Funeral Rituals Texts","latitude":40.025024019999996,"longitude":34.608218069999999,"description":"It is said that the Hittites had the oldest indigenous writing culture in Anatolia (Hawkins 1986: 363-364).\nThis makes them the most important source of written information about Ancient Anatolia.\nHittite cuneiform tablets show that the Hittites placed particular importance on the performance of musical instruments in birth and death rituals, healing and worship rituals, and ceremonies and festivals such as weddings and victories (Hitit Portalı: Myths – Rituals; Masalcı Şahin 2018: 27-39).\nIt was initially suggested that the Sumerian word «(GIŠ2)ŠÀ.A.TAR», used in the geography of ancient Mesopotamia, referred to a stringed musical instrument (Masalcı Şahin 2016: 83).\nLater, this word, which is encountered in Hittite cuneiform tablets with its new reading as «TIBULA», is thought by many researchers to describe a lute-type instrument (Masalcı Şahin 2016: 86).\nThe instrument referred to as «TIBULA», which is thought to be a lute-type instrument, is written to have accompanied the singer in the Hittite text titled «Death Ritual Day 1-2» (CTH 450.1.1.1, 180’.. Line, Kapełuś, Hethiter.net, online).\n\nIn this respect, it is reminiscent of the ritual of playing the saz (a stringed instrument) after the death of a person in the Turkish minstrel tradition (Masalcı Şahin 2018: 138, 139).\n\nThe word «TIBULA» also appears in the text related to the KI.LAM festival: Kbo X 24 / Masalcı Şahin 2018: 266 \u003cbr\u003e \u003cbr\u003e \u003cimg src=images/013-ANT-ANA-W.png width=\\\"200\\\"\u003e \u003cbr\u003e \u003cbr\u003e","period":"Antiquity","data_type":"Written Document","century":"15th Century BCE","geography":"Anatolia","culture":"Hittite","neck_length":"Unknown","soundbox_type":"Unknown","material":"Unknown","string_count":"Unknown","tuning_info":"Unknown","fret_info":"Unknown","visual_design":"Unknown","performance_type":"Religious Based Context/Performance","right_hand_tech":"Unknown","left_hand_tech":"Unknown","handedness":"Unknown","plectrum_tech":"Unknown","posture":"Unknown","performance_mode":"Collective","semantic":"Hittite Funeral Rituals Texts","gender":"Male (Certain)","location_info":"City Square","century_num":-15,"date_start_num":-1500,"date_end_num":-1401,"date_mid_num":-1450,"modern_country":"Turkey","citation":null,"record_id":"013-ANT-ANA-W","player_count":0,"has_image":"Yes","gender_certainty":"Certain","image_filename":"013-ANT-ANA-W.png"}},{"type":"Feature","id":14,"geometry":{"type":"Point","coordinates":[37.997930620000034,36.833435050000048]},"properties":{"OBJECTID":14,"id":14,"name":"Karkamış/Kargamış Orthostat (Procession)","latitude":36.833435049999999,"longitude":37.997930619999998,"description":"The Karkamış wall relief depicts a dancer and musicians, and shows the playing of a tasseled lute-like instrument.\nThis provides evidence of the playing of lute-type instruments during the Late Hittite period. \u003cbr\u003e \u003cbr\u003e \u003cimg src=images/014-ANT-ANA-V.png width=\\\"200\\\"\u003e \u003cbr\u003e \u003cbr\u003e","period":"Antiquity","data_type":"Visual Document","century":"9th Century BCE","geography":"Anatolia","culture":"Hittite","neck_length":"Long Necked","soundbox_type":"Bowl","material":"Unknown","string_count":"Unknown","tuning_info":"Unknown","fret_info":"Unknown","visual_design":"Unknown","performance_type":"Secular Context/Performance","right_hand_tech":"Unknown","left_hand_tech":"Unknown","handedness":"Right Handed","plectrum_tech":"Unknown","posture":"Standing","performance_mode":"Collective","semantic":"N/A","gender":"Male (Not Certain)","location_info":"City Square","century_num":-9,"date_start_num":-900,"date_end_num":-801,"date_mid_num":-850,"modern_country":"Turkey","citation":null,"record_id":"014-ANT-ANA-V","player_count":1,"has_image":"Yes","gender_certainty":"Not Certain","image_filename":"014-ANT-ANA-V.png"}},{"type":"Feature","id":15,"geometry":{"type":"Point","coordinates":[48.252000000000066,32.18100000000004]},"properties":{"OBJECTID":15,"id":15,"name":"Susa Figurines II","latitude":32.180999999999997,"longitude":48.252000000000002,"description":"A terracotta male figure from Susa is represented playing a lute. \u003cbr\u003e \u003cbr\u003e \u003cimg src=images/015-ANT-SUS-V.png width=\\\"200\\\"\u003e \u003cbr\u003e \u003cbr\u003e","period":"Antiquity","data_type":"Visual Document","century":"22nd Century BCE","geography":"Susiana (Elam)","culture":"Paleo-Elamite / Susa-Susiana","neck_length":"Unknown","soundbox_type":"Bowl","material":"Unknown","string_count":"Unknown","tuning_info":"Unknown","fret_info":"Unknown","visual_design":"Unknown","performance_type":"Unknown","right_hand_tech":"Unknown","left_hand_tech":"Unknown","handedness":"Right Handed","plectrum_tech":"Unknown","posture":"Standing","performance_mode":"Solo","semantic":"N/A","gender":"Male (Certain)","location_info":"Non-specific","century_num":-22,"date_start_num":-2200,"date_end_num":-2101,"date_mid_num":-2150,"modern_country":"Iran","citation":"Louvre Collections, SB 7927; D 476 https://collections.louvre.fr/en/ark:/53355/cl010126871","record_id":"015-ANT-SUS-V","player_count":1,"has_image":"Yes","gender_certainty":"Certain","image_filename":"015-ANT-SUS-V.png"}},{"type":"Feature","id":16,"geometry":{"type":"Point","coordinates":[44.548000000000059,33.215000000000032]},"properties":{"OBJECTID":16,"id":16,"name":"Ishchali Lute Plaque I","latitude":33.215000000000003,"longitude":44.548000000000002,"description":"A male musician from Ishchali is shown playing a lute.","period":"Antiquity","data_type":"Visual Document","century":"20th Century BCE","geography":"Mesopotamia","culture":"Isin-Larsa - Ancient Mesopotamian","neck_length":"Long Necked","soundbox_type":"Bowl","material":"Unknown","string_count":"Unknown","tuning_info":"Unknown","fret_info":"Unknown","visual_design":"No Design","performance_type":"Unknown","right_hand_tech":"Unknown","left_hand_tech":"Unknown","handedness":"Unknown","plectrum_tech":"Unknown","posture":"Unknown","performance_mode":"Solo","semantic":"N/A","gender":"Male (Certain)","location_info":"Non-specific","century_num":-20,"date_start_num":-2000,"date_end_num":-1901,"date_mid_num":-1950,"modern_country":"Iraq","citation":"ISAC Museum, A9357 - https://isac-idb.uchicago.edu/id/34c59871-2dac-41b3-98ff-a5819c38a88b","record_id":"016-ANT-MES-V","player_count":1,"has_image":"No","gender_certainty":"Certain","image_filename":"016-ANT-MES-V.png"}},{"type":"Feature","id":17,"geometry":{"type":"Point","coordinates":[44.55800000000005,33.22500000000008]},"properties":{"OBJECTID":17,"id":17,"name":"Ishchali Lute Plaque II","latitude":33.225000000000001,"longitude":44.558,"description":"A fragmentary Isin-Larsa plaque preserves the upper part of a lute player.","period":"Antiquity","data_type":"Visual Document","century":"20th Century BCE","geography":"Mesopotamia","culture":"Isin-Larsa - Ancient Mesopotamian","neck_length":"Long Necked","soundbox_type":"Bowl","material":"Unknown","string_count":"Unknown","tuning_info":"Unknown","fret_info":"Unknown","visual_design":"No Design","performance_type":"Unknown","right_hand_tech":"Unknown","left_hand_tech":"Unknown","handedness":"Unknown","plectrum_tech":"Unknown","posture":"Unknown","performance_mode":"Solo","semantic":"N/A","gender":"Unknown (Not Certain)","location_info":"Non-specific","century_num":-20,"date_start_num":-2000,"date_end_num":-1901,"date_mid_num":-1950,"modern_country":"Iraq","citation":"ISAC Museum, A16994 - https://isac-idb.uchicago.edu/id/67661db6-5dc1-4a7b-9cb8-8450c9e4d4e3","record_id":"017-ANT-MES-V","player_count":1,"has_image":"No","gender_certainty":"Not Certain","image_filename":"017-ANT-MES-V.png"}},{"type":"Feature","id":18,"geometry":{"type":"Point","coordinates":[48.247000000000071,32.187000000000069]},"properties":{"OBJECTID":18,"id":18,"name":"Susa Figurines III","latitude":32.186999999999998,"longitude":48.247,"description":"A molded terracotta musician from Susa is depicted playing a lute.","period":"Antiquity","data_type":"Visual Document","century":"20th Century BCE","geography":"Susiana (Elam)","culture":"Elamite / Susa-Susiana","neck_length":"Long Necked","soundbox_type":"Bowl","material":"Unknown","string_count":"Unknown","tuning_info":"Unknown","fret_info":"Unknown","visual_design":"No Design","performance_type":"Unknown","right_hand_tech":"Unknown","left_hand_tech":"Unknown","handedness":"Right Handed","plectrum_tech":"Unknown","posture":"Standing","performance_mode":"Solo","semantic":"N/A","gender":"Male (Certain)","location_info":"Non-specific","century_num":-20,"date_start_num":-2000,"date_end_num":-1901,"date_mid_num":-1950,"modern_country":"Iran","citation":"Louvre Collections, SB 7814; U 27 - https://collections.louvre.fr/en/ark:/53355/cl010127177","record_id":"018-ANT-SUS-V","player_count":1,"has_image":"No","gender_certainty":"Certain","image_filename":"018-ANT-SUS-V.png"}},{"type":"Feature","id":19,"geometry":{"type":"Point","coordinates":[48.247500000000059,32.192000000000064]},"properties":{"OBJECTID":19,"id":19,"name":"Susa Figurines IV","latitude":32.192,"longitude":48.247500000000002,"description":"A bearded musician figurine from Susa is associated with lute playing.","period":"Antiquity","data_type":"Visual Document","century":"20th Century BCE","geography":"Susiana (Elam)","culture":"Elamite / Susa-Susiana","neck_length":"Long Necked","soundbox_type":"Bowl","material":"Unknown","string_count":"Unknown","tuning_info":"Unknown","fret_info":"Unknown","visual_design":"No Design","performance_type":"Unknown","right_hand_tech":"Unknown","left_hand_tech":"Unknown","handedness":"Right Handed","plectrum_tech":"Unknown","posture":"Standing","performance_mode":"Solo","semantic":"N/A","gender":"Male (Certain)","location_info":"Non-specific","century_num":-20,"date_start_num":-2000,"date_end_num":-1901,"date_mid_num":-1950,"modern_country":"Iran","citation":"Louvre Collections, SB 7818 - https://collections.louvre.fr/en/ark:/53355/cl010127182","record_id":"019-ANT-SUS-V","player_count":1,"has_image":"No","gender_certainty":"Certain","image_filename":"019-ANT-SUS-V.png"}},{"type":"Feature","id":20,"geometry":{"type":"Point","coordinates":[44.420000000000073,32.540000000000077]},"properties":{"OBJECTID":20,"id":20,"name":"Old Babylonian Lute Plaque","latitude":32.539999999999999,"longitude":44.420000000000002,"description":"A baked clay plaque shows a bearded man playing a lute before a tripod stand.","period":"Antiquity","data_type":"Visual Document","century":"20th Century BCE","geography":"Mesopotamia","culture":"Old Babylonian - Ancient Mesopotamian","neck_length":"Long Necked","soundbox_type":"Bowl","material":"Unknown","string_count":"Unknown","tuning_info":"Unknown","fret_info":"Unknown","visual_design":"No Design","performance_type":"Unknown","right_hand_tech":"Unknown","left_hand_tech":"Unknown","handedness":"Unknown","plectrum_tech":"Unknown","posture":"Standing","performance_mode":"Solo","semantic":"N/A","gender":"Male (Certain)","location_info":"Non-specific","century_num":-20,"date_start_num":-2000,"date_end_num":-1901,"date_mid_num":-1950,"modern_country":"Iraq","citation":"British Museum, 108843; 1914,0407.9 - https://www.britishmuseum.org/collection/object/W_1914-0407-9","record_id":"020-ANT-MES-V","player_count":1,"has_image":"No","gender_certainty":"Certain","image_filename":"020-ANT-MES-V.png"}},{"type":"Feature","id":21,"geometry":{"type":"Point","coordinates":[34.370000000000061,40.145000000000039]},"properties":{"OBJECTID":21,"id":21,"name":"Hüseyindede Lute Player","latitude":40.145000000000003,"longitude":34.369999999999997,"description":"An Early Hittite relief vase includes a male musician playing a lute-type instrument.","period":"Antiquity","data_type":"Visual Document","century":"17th Century BCE","geography":"Anatolia","culture":"Hittite","neck_length":"Long Necked","soundbox_type":"Bowl","material":"Unknown","string_count":"Unknown","tuning_info":"Unknown","fret_info":"Unknown","visual_design":"No Design","performance_type":"Religious Based Context/Performance","right_hand_tech":"Unknown","left_hand_tech":"Unknown","handedness":"Unknown","plectrum_tech":"Unknown","posture":"Standing","performance_mode":"Solo","semantic":"N/A","gender":"Male (Certain)","location_info":"Ceremonial / Monumental Context","century_num":-17,"date_start_num":-1700,"date_end_num":-1601,"date_mid_num":-1650,"modern_country":"Turkey","citation":"Yıldırım, DTCF Dergisi - https://dergipark.org.tr/en/pub/dtcfdergisi/issue/66765/1044003","record_id":"021-ANT-ANA-V","player_count":1,"has_image":"No","gender_certainty":"Certain","image_filename":"021-ANT-ANA-V.png"}},{"type":"Feature","id":22,"geometry":{"type":"Point","coordinates":[32.618000000000052,25.741000000000042]},"properties":{"OBJECTID":22,"id":22,"name":"Theban Lute Fragment","latitude":25.741,"longitude":32.618000000000002,"description":"A wooden section of a lute instrument was found at Dra Abu el-Naga in Thebes.","period":"Antiquity","data_type":"Physical Object","century":"16th Century BCE","geography":"Egypt","culture":"New Kingdom Egyptian","neck_length":"Long Necked","soundbox_type":"Other","material":"Wood","string_count":"Unknown","tuning_info":"Unknown","fret_info":"Unknown","visual_design":"Physical object","performance_type":"N/A","right_hand_tech":"N/A","left_hand_tech":"N/A","handedness":"N/A","plectrum_tech":"N/A","posture":"N/A","performance_mode":"N/A","semantic":"Physical instrument evidence","gender":"N/A (N/A)","location_info":"Excavation / Museum Context","century_num":-16,"date_start_num":-1600,"date_end_num":-1501,"date_mid_num":-1550,"modern_country":"Egypt","citation":"MET Museum, 12.181.294 - https://www.metmuseum.org/art/collection/search/554346","record_id":"022-ANT-EGY-P","player_count":0,"has_image":"No","gender_certainty":"N/A","image_filename":"022-ANT-EGY-P.png"}},{"type":"Feature","id":23,"geometry":{"type":"Point","coordinates":[31.500000000000057,26.500000000000057]},"properties":{"OBJECTID":23,"id":23,"name":"Egyptian Lute Soundbox","latitude":26.5,"longitude":31.5,"description":"A tortoise-shell soundbox preserves part of an ancient Egyptian lute.","period":"Antiquity","data_type":"Physical Object","century":"16th Century BCE","geography":"Egypt","culture":"New Kingdom Egyptian","neck_length":"Long Necked","soundbox_type":"Bowl","material":"Tortoise shell","string_count":"Unknown","tuning_info":"Unknown","fret_info":"Unknown","visual_design":"Physical object","performance_type":"N/A","right_hand_tech":"N/A","left_hand_tech":"N/A","handedness":"N/A","plectrum_tech":"N/A","posture":"N/A","performance_mode":"N/A","semantic":"Physical instrument evidence","gender":"N/A (N/A)","location_info":"Excavation / Museum Context","century_num":-16,"date_start_num":-1600,"date_end_num":-1501,"date_mid_num":-1550,"modern_country":"Egypt","citation":"British Museum, EA38171 - https://www.britishmuseum.org/collection/object/Y_EA38171","record_id":"023-ANT-EGY-P","player_count":0,"has_image":"No","gender_certainty":"N/A","image_filename":"023-ANT-EGY-P.png"}},{"type":"Feature","id":24,"geometry":{"type":"Point","coordinates":[48.253000000000043,32.196000000000026]},"properties":{"OBJECTID":24,"id":24,"name":"Susa Figurines V","latitude":32.195999999999998,"longitude":48.253,"description":"A Middle Elamite terracotta figure from Susa represents a lute player.","period":"Antiquity","data_type":"Visual Document","century":"15th Century BCE","geography":"Susiana (Elam)","culture":"Middle Elamite / Susa-Susiana","neck_length":"Long Necked","soundbox_type":"Bowl","material":"Unknown","string_count":"Unknown","tuning_info":"Unknown","fret_info":"Unknown","visual_design":"No Design","performance_type":"Unknown","right_hand_tech":"Unknown","left_hand_tech":"Unknown","handedness":"Right Handed","plectrum_tech":"Unknown","posture":"Standing","performance_mode":"Solo","semantic":"N/A","gender":"Male (Certain)","location_info":"Non-specific","century_num":-15,"date_start_num":-1500,"date_end_num":-1401,"date_mid_num":-1450,"modern_country":"Iran","citation":"Louvre Collections, SB 7911; N 967 - https://collections.louvre.fr/en/ark:/53355/cl010127609","record_id":"024-ANT-SUS-V","player_count":1,"has_image":"No","gender_certainty":"Certain","image_filename":"024-ANT-SUS-V.png"}},{"type":"Feature","id":25,"geometry":{"type":"Point","coordinates":[48.259000000000071,32.18300000000005]},"properties":{"OBJECTID":25,"id":25,"name":"Susa Figurines VI","latitude":32.183,"longitude":48.259,"description":"A Susa figurine shows a bearded nude musician playing a lute.","period":"Antiquity","data_type":"Visual Document","century":"15th Century BCE","geography":"Susiana (Elam)","culture":"Middle Elamite / Susa-Susiana","neck_length":"Long Necked","soundbox_type":"Bowl","material":"Unknown","string_count":"Unknown","tuning_info":"Unknown","fret_info":"Unknown","visual_design":"No Design","performance_type":"Unknown","right_hand_tech":"Unknown","left_hand_tech":"Unknown","handedness":"Right Handed","plectrum_tech":"Unknown","posture":"Standing","performance_mode":"Solo","semantic":"N/A","gender":"Male (Certain)","location_info":"Non-specific","century_num":-15,"date_start_num":-1500,"date_end_num":-1401,"date_mid_num":-1450,"modern_country":"Iran","citation":"Louvre Collections, SB 8250; GS 5094 - https://collections.louvre.fr/en/ark:/53355/cl010127624","record_id":"025-ANT-SUS-V","player_count":1,"has_image":"No","gender_certainty":"Certain","image_filename":"025-ANT-SUS-V.png"}},{"type":"Feature","id":26,"geometry":{"type":"Point","coordinates":[48.264500000000055,32.190500000000043]},"properties":{"OBJECTID":26,"id":26,"name":"Susa Figurines VII","latitude":32.1905,"longitude":48.264499999999998,"description":"A Middle Elamite terracotta musician from Susa is shown with a lute.","period":"Antiquity","data_type":"Visual Document","century":"15th Century BCE","geography":"Susiana (Elam)","culture":"Middle Elamite / Susa-Susiana","neck_length":"Long Necked","soundbox_type":"Bowl","material":"Unknown","string_count":"Unknown","tuning_info":"Unknown","fret_info":"Unknown","visual_design":"No Design","performance_type":"Unknown","right_hand_tech":"Unknown","left_hand_tech":"Unknown","handedness":"Right Handed","plectrum_tech":"Unknown","posture":"Standing","performance_mode":"Solo","semantic":"N/A","gender":"Male (Certain)","location_info":"Non-specific","century_num":-15,"date_start_num":-1500,"date_end_num":-1401,"date_mid_num":-1450,"modern_country":"Iran","citation":"Louvre Collections, SB 7887 - https://collections.louvre.fr/ark:/53355/cl010127419","record_id":"026-ANT-SUS-V","player_count":1,"has_image":"No","gender_certainty":"Certain","image_filename":"026-ANT-SUS-V.png"}},{"type":"Feature","id":27,"geometry":{"type":"Point","coordinates":[48.264000000000067,32.198500000000024]},"properties":{"OBJECTID":27,"id":27,"name":"Susa Figurines VIII","latitude":32.198500000000003,"longitude":48.264000000000003,"description":"A nude unbearded musician from Susa is represented playing a lute.","period":"Antiquity","data_type":"Visual Document","century":"15th Century BCE","geography":"Susiana (Elam)","culture":"Middle Elamite / Susa-Susiana","neck_length":"Long Necked","soundbox_type":"Bowl","material":"Unknown","string_count":"Unknown","tuning_info":"Unknown","fret_info":"Unknown","visual_design":"No Design","performance_type":"Unknown","right_hand_tech":"Unknown","left_hand_tech":"Unknown","handedness":"Right Handed","plectrum_tech":"Unknown","posture":"Standing","performance_mode":"Solo","semantic":"N/A","gender":"Male (Certain)","location_info":"Non-specific","century_num":-15,"date_start_num":-1500,"date_end_num":-1401,"date_mid_num":-1450,"modern_country":"Iran","citation":"Louvre Collections, SB 7923; A 7665 - https://collections.louvre.fr/en/ark:/53355/cl010127616","record_id":"027-ANT-SUS-V","player_count":1,"has_image":"No","gender_certainty":"Certain","image_filename":"027-ANT-SUS-V.png"}},{"type":"Feature","id":28,"geometry":{"type":"Point","coordinates":[48.268500000000074,32.17900000000003]},"properties":{"OBJECTID":28,"id":28,"name":"Susa Figurines IX","latitude":32.179000000000002,"longitude":48.268500000000003,"description":"A bearded terracotta lutenist from Susa is shown with bracelets.","period":"Antiquity","data_type":"Visual Document","century":"15th Century BCE","geography":"Susiana (Elam)","culture":"Middle Elamite / Susa-Susiana","neck_length":"Long Necked","soundbox_type":"Bowl","material":"Unknown","string_count":"Unknown","tuning_info":"Unknown","fret_info":"Unknown","visual_design":"No Design","performance_type":"Unknown","right_hand_tech":"Unknown","left_hand_tech":"Unknown","handedness":"Right Handed","plectrum_tech":"Unknown","posture":"Standing","performance_mode":"Solo","semantic":"N/A","gender":"Male (Certain)","location_info":"Non-specific","century_num":-15,"date_start_num":-1500,"date_end_num":-1401,"date_mid_num":-1450,"modern_country":"Iran","citation":"Louvre Collections, SB 7899; L 18 - https://collections.louvre.fr/en/ark:/53355/cl010127647","record_id":"028-ANT-SUS-V","player_count":1,"has_image":"No","gender_certainty":"Certain","image_filename":"028-ANT-SUS-V.png"}},{"type":"Feature","id":29,"geometry":{"type":"Point","coordinates":[48.272000000000048,32.185500000000047]},"properties":{"OBJECTID":29,"id":29,"name":"Susa Figurines X","latitude":32.185499999999998,"longitude":48.271999999999998,"description":"A bearded musician from royal Susa is depicted playing a lute.","period":"Antiquity","data_type":"Visual Document","century":"15th Century BCE","geography":"Susiana (Elam)","culture":"Middle Elamite / Susa-Susiana","neck_length":"Long Necked","soundbox_type":"Bowl","material":"Unknown","string_count":"Unknown","tuning_info":"Unknown","fret_info":"Unknown","visual_design":"No Design","performance_type":"Unknown","right_hand_tech":"Unknown","left_hand_tech":"Unknown","handedness":"Right Handed","plectrum_tech":"Unknown","posture":"Standing","performance_mode":"Solo","semantic":"N/A","gender":"Male (Certain)","location_info":"Non-specific","century_num":-15,"date_start_num":-1500,"date_end_num":-1401,"date_mid_num":-1450,"modern_country":"Iran","citation":"Louvre Collections, SB 5790 B; GS 5132 - https://collections.louvre.fr/en/ark:/53355/cl010127632","record_id":"029-ANT-SUS-V","player_count":1,"has_image":"No","gender_certainty":"Certain","image_filename":"029-ANT-SUS-V.png"}},{"type":"Feature","id":30,"geometry":{"type":"Point","coordinates":[48.273000000000081,32.193500000000029]},"properties":{"OBJECTID":30,"id":30,"name":"Susa Figurines XI","latitude":32.1935,"longitude":48.273000000000003,"description":"A headbanded bearded musician from Susa is shown playing a lute.","period":"Antiquity","data_type":"Visual Document","century":"15th Century BCE","geography":"Susiana (Elam)","culture":"Middle Elamite / Susa-Susiana","neck_length":"Long Necked","soundbox_type":"Bowl","material":"Unknown","string_count":"Unknown","tuning_info":"Unknown","fret_info":"Unknown","visual_design":"No Design","performance_type":"Unknown","right_hand_tech":"Unknown","left_hand_tech":"Unknown","handedness":"Right Handed","plectrum_tech":"Unknown","posture":"Standing","performance_mode":"Solo","semantic":"N/A","gender":"Male (Certain)","location_info":"Non-specific","century_num":-15,"date_start_num":-1500,"date_end_num":-1401,"date_mid_num":-1450,"modern_country":"Iran","citation":"Louvre Collections, SB 7893; A 7667 - https://collections.louvre.fr/en/ark:/53355/cl010127671","record_id":"030-ANT-SUS-V","player_count":1,"has_image":"No","gender_certainty":"Certain","image_filename":"030-ANT-SUS-V.png"}},{"type":"Feature","id":31,"geometry":{"type":"Point","coordinates":[48.270000000000039,32.201000000000079]},"properties":{"OBJECTID":31,"id":31,"name":"Susa Figurines XII","latitude":32.201000000000001,"longitude":48.270000000000003,"description":"A moustached and bearded Susa lutenist is represented in terracotta.","period":"Antiquity","data_type":"Visual Document","century":"15th Century BCE","geography":"Susiana (Elam)","culture":"Middle Elamite / Susa-Susiana","neck_length":"Long Necked","soundbox_type":"Bowl","material":"Unknown","string_count":"Unknown","tuning_info":"Unknown","fret_info":"Unknown","visual_design":"No Design","performance_type":"Unknown","right_hand_tech":"Unknown","left_hand_tech":"Unknown","handedness":"Right Handed","plectrum_tech":"Unknown","posture":"Standing","performance_mode":"Solo","semantic":"N/A","gender":"Male (Certain)","location_info":"Non-specific","century_num":-15,"date_start_num":-1500,"date_end_num":-1401,"date_mid_num":-1450,"modern_country":"Iran","citation":"Louvre Collections, SB 7879 - https://collections.louvre.fr/en/ark:/53355/cl010127656","record_id":"031-ANT-SUS-V","player_count":1,"has_image":"No","gender_certainty":"Certain","image_filename":"031-ANT-SUS-V.png"}},{"type":"Feature","id":32,"geometry":{"type":"Point","coordinates":[48.25750000000005,32.174500000000023]},"properties":{"OBJECTID":32,"id":32,"name":"Susa Figurines XIII","latitude":32.174500000000002,"longitude":48.2575,"description":"A bearded terracotta lutenist from Susa is preserved as an incomplete figurine.","period":"Antiquity","data_type":"Visual Document","century":"15th Century BCE","geography":"Susiana (Elam)","culture":"Middle Elamite / Susa-Susiana","neck_length":"Long Necked","soundbox_type":"Bowl","material":"Unknown","string_count":"Unknown","tuning_info":"Unknown","fret_info":"Unknown","visual_design":"No Design","performance_type":"Unknown","right_hand_tech":"Unknown","left_hand_tech":"Unknown","handedness":"Right Handed","plectrum_tech":"Unknown","posture":"Standing","performance_mode":"Solo","semantic":"N/A","gender":"Male (Certain)","location_info":"Non-specific","century_num":-15,"date_start_num":-1500,"date_end_num":-1401,"date_mid_num":-1450,"modern_country":"Iran","citation":"Louvre Collections, SB 7905 - https://collections.louvre.fr/en/ark:/53355/cl010127655","record_id":"032-ANT-SUS-V","player_count":1,"has_image":"No","gender_certainty":"Certain","image_filename":"032-ANT-SUS-V.png"}},{"type":"Feature","id":33,"geometry":{"type":"Point","coordinates":[48.247500000000059,32.176500000000033]},"properties":{"OBJECTID":33,"id":33,"name":"Susa Figurines XIV","latitude":32.176499999999997,"longitude":48.247500000000002,"description":"A nude bearded lute player from Susa is preserved in terracotta.","period":"Antiquity","data_type":"Visual Document","century":"15th Century BCE","geography":"Susiana (Elam)","culture":"Middle Elamite / Susa-Susiana","neck_length":"Long Necked","soundbox_type":"Bowl","material":"Unknown","string_count":"Unknown","tuning_info":"Unknown","fret_info":"Unknown","visual_design":"No Design","performance_type":"Unknown","right_hand_tech":"Unknown","left_hand_tech":"Unknown","handedness":"Right Handed","plectrum_tech":"Unknown","posture":"Standing","performance_mode":"Solo","semantic":"N/A","gender":"Male (Certain)","location_info":"Non-specific","century_num":-15,"date_start_num":-1500,"date_end_num":-1401,"date_mid_num":-1450,"modern_country":"Iran","citation":"Louvre Collections, SB 6579 - https://collections.louvre.fr/en/ark:/53355/cl010127639","record_id":"033-ANT-SUS-V","player_count":1,"has_image":"No","gender_certainty":"Certain","image_filename":"033-ANT-SUS-V.png"}},{"type":"Feature","id":34,"geometry":{"type":"Point","coordinates":[48.256000000000029,32.203500000000076]},"properties":{"OBJECTID":34,"id":34,"name":"Susa Figurines XV","latitude":32.203499999999998,"longitude":48.256,"description":"A bonneted bearded musician from Susa is depicted playing a lute.","period":"Antiquity","data_type":"Visual Document","century":"15th Century BCE","geography":"Susiana (Elam)","culture":"Middle Elamite / Susa-Susiana","neck_length":"Long Necked","soundbox_type":"Bowl","material":"Unknown","string_count":"Unknown","tuning_info":"Unknown","fret_info":"Unknown","visual_design":"No Design","performance_type":"Unknown","right_hand_tech":"Unknown","left_hand_tech":"Unknown","handedness":"Right Handed","plectrum_tech":"Unknown","posture":"Standing","performance_mode":"Solo","semantic":"N/A","gender":"Male (Certain)","location_info":"Non-specific","century_num":-15,"date_start_num":-1500,"date_end_num":-1401,"date_mid_num":-1450,"modern_country":"Iran","citation":"Louvre Collections, SB 7885; N 637 - https://collections.louvre.fr/en/ark:/53355/cl010127665","record_id":"034-ANT-SUS-V","player_count":1,"has_image":"No","gender_certainty":"Certain","image_filename":"034-ANT-SUS-V.png"}},{"type":"Feature","id":35,"geometry":{"type":"Point","coordinates":[48.261500000000069,32.206000000000074]},"properties":{"OBJECTID":35,"id":35,"name":"Susa Lute Plaque I","latitude":32.206000000000003,"longitude":48.261499999999998,"description":"A Middle Elamite plaque shows a nude male musician playing a lute.","period":"Antiquity","data_type":"Visual Document","century":"15th Century BCE","geography":"Susiana (Elam)","culture":"Middle Elamite / Susa-Susiana","neck_length":"Long Necked","soundbox_type":"Bowl","material":"Unknown","string_count":"Unknown","tuning_info":"Unknown","fret_info":"Unknown","visual_design":"No Design","performance_type":"Unknown","right_hand_tech":"Unknown","left_hand_tech":"Unknown","handedness":"Right Handed","plectrum_tech":"Unknown","posture":"Standing","performance_mode":"Solo","semantic":"N/A","gender":"Male (Certain)","location_info":"Non-specific","century_num":-15,"date_start_num":-1500,"date_end_num":-1401,"date_mid_num":-1450,"modern_country":"Iran","citation":"British Museum, 91889; 1853,1219.47 - https://www.britishmuseum.org/collection/object/W_1853-1219-47","record_id":"035-ANT-SUS-V","player_count":1,"has_image":"No","gender_certainty":"Certain","image_filename":"035-ANT-SUS-V.png"}},{"type":"Feature","id":36,"geometry":{"type":"Point","coordinates":[32.657300000000077,25.718800000000044]},"properties":{"OBJECTID":36,"id":36,"name":"Theban Lute Player Jar","latitude":25.718800000000002,"longitude":32.657299999999999,"description":"A cosmetic jar from Thebes depicts a woman playing a detailed lute with frets and plectrum. \u003cbr\u003e \u003cbr\u003e \u003cimg src=images/036-ANT-EGY-V.png width=\\\"200\\\"\u003e \u003cbr\u003e \u003cbr\u003e","period":"Antiquity","data_type":"Visual Document","century":"15th Century BCE","geography":"Egypt","culture":"New Kingdom Egyptian","neck_length":"Long Necked","soundbox_type":"Bowl","material":"Unknown","string_count":"2","tuning_info":"Unknown","fret_info":"Possible Evidence","visual_design":"Detailed lute depiction with frets and plectrum","performance_type":"Secular Context/Performance","right_hand_tech":"Unknown","left_hand_tech":"Unknown","handedness":"Right Handed","plectrum_tech":"Possible Evidence","posture":"Standing","performance_mode":"Solo","semantic":"N/A","gender":"Female (Certain)","location_info":"Non-specific","century_num":-15,"date_start_num":-1500,"date_end_num":-1401,"date_mid_num":-1450,"modern_country":"Egypt","citation":"British Museum, EA5114 - https://www.britishmuseum.org/collection/object/Y_EA5114","record_id":"036-ANT-EGY-V","player_count":1,"has_image":"Yes","gender_certainty":"Certain","image_filename":"036-ANT-EGY-V.png"}},{"type":"Feature","id":37,"geometry":{"type":"Point","coordinates":[48.264000000000067,32.170000000000073]},"properties":{"OBJECTID":37,"id":37,"name":"Susa Figurines XVI","latitude":32.170000000000002,"longitude":48.264000000000003,"description":"An unbearded Middle Elamite terracotta musician from Susa plays a lute.","period":"Antiquity","data_type":"Visual Document","century":"14th Century BCE","geography":"Susiana (Elam)","culture":"Middle Elamite / Susa-Susiana","neck_length":"Long Necked","soundbox_type":"Bowl","material":"Unknown","string_count":"Unknown","tuning_info":"Unknown","fret_info":"Unknown","visual_design":"No Design","performance_type":"Unknown","right_hand_tech":"Unknown","left_hand_tech":"Unknown","handedness":"Right Handed","plectrum_tech":"Unknown","posture":"Standing","performance_mode":"Solo","semantic":"N/A","gender":"Male (Certain)","location_info":"Non-specific","century_num":-14,"date_start_num":-1400,"date_end_num":-1301,"date_mid_num":-1350,"modern_country":"Iran","citation":"Louvre Collections, SB 7916; U 27 - https://collections.louvre.fr/en/ark:/53355/cl010127602","record_id":"037-ANT-SUS-V","player_count":1,"has_image":"No","gender_certainty":"Certain","image_filename":"037-ANT-SUS-V.png"}},{"type":"Feature","id":38,"geometry":{"type":"Point","coordinates":[36.676000000000045,37.103000000000065]},"properties":{"OBJECTID":38,"id":38,"name":"Zincirli Lute Player","latitude":37.103000000000002,"longitude":36.676000000000002,"description":"A Zincirli basalt relief/inscription preserves a lute player and bird motif. \u003cbr\u003e \u003cbr\u003e \u003cimg src=images/038-ANT-ANA-V.png width=\\\"200\\\"\u003e \u003cbr\u003e \u003cbr\u003e","period":"Antiquity","data_type":"Visual Document","century":"10th Century BCE","geography":"Anatolia","culture":"Neo-Hittite / Sam’al","neck_length":"Long Necked","soundbox_type":"Bowl","material":"Unknown","string_count":"Unknown","tuning_info":"Unknown","fret_info":"Unknown","visual_design":"Bird motif / inscription context","performance_type":"Unknown","right_hand_tech":"Unknown","left_hand_tech":"Unknown","handedness":"Unknown","plectrum_tech":"Unknown","posture":"Standing","performance_mode":"Solo","semantic":"N/A","gender":"Male (Certain)","location_info":"Monumental Relief","century_num":-10,"date_start_num":-1000,"date_end_num":-901,"date_mid_num":-950,"modern_country":"Turkey","citation":"Koç University Digital Collections, Gonnet-Bağana - https://libdigitalcollections.ku.edu.tr/digital/collection/GHC/id/1907/rec/1","record_id":"038-ANT-ANA-V","player_count":1,"has_image":"Yes","gender_certainty":"Certain","image_filename":"038-ANT-ANA-V.png"}},{"type":"Feature","id":39,"geometry":{"type":"Point","coordinates":[33.429900000000032,35.126400000000046]},"properties":{"OBJECTID":39,"id":39,"name":"Cypriot Lute Player","latitude":35.126399999999997,"longitude":33.429900000000004,"description":"A Hellenistic terracotta figure represents a standing woman playing a lute.","period":"Antiquity","data_type":"Visual Document","century":"3rd Century BCE","geography":"Cyprus","culture":"Hellenistic Cypriot / Greek","neck_length":"Long Necked","soundbox_type":"Bowl","material":"Unknown","string_count":"Unknown","tuning_info":"Unknown","fret_info":"Unknown","visual_design":"No Design","performance_type":"Unknown","right_hand_tech":"Unknown","left_hand_tech":"Unknown","handedness":"Unknown","plectrum_tech":"Unknown","posture":"Standing","performance_mode":"Solo","semantic":"N/A","gender":"Female (Certain)","location_info":"Non-specific","century_num":-3,"date_start_num":-300,"date_end_num":-201,"date_mid_num":-250,"modern_country":"Cyprus","citation":"British Museum, 1919,0620.7 - https://www.britishmuseum.org/collection/object/G_1919-0620-7","record_id":"039-ANT-CYP-V","player_count":1,"has_image":"No","gender_certainty":"Certain","image_filename":"039-ANT-CYP-V.png"}},{"type":"Feature","id":40,"geometry":{"type":"Point","coordinates":[23.536000000000058,38.326000000000079]},"properties":{"OBJECTID":40,"id":40,"name":"Tanagra Pandura Player","latitude":38.326000000000001,"longitude":23.536000000000001,"description":"A seated Tanagra musician is represented playing a pandura.","period":"Antiquity","data_type":"Visual Document","century":"3rd Century BCE","geography":"Ancient Greece","culture":"Hellenistic Greek","neck_length":"Long Necked","soundbox_type":"Bowl","material":"Unknown","string_count":"Unknown","tuning_info":"Unknown","fret_info":"Unknown","visual_design":"No Design","performance_type":"Secular Context/Performance","right_hand_tech":"Unknown","left_hand_tech":"Unknown","handedness":"Unknown","plectrum_tech":"Unknown","posture":"Seated","performance_mode":"Solo","semantic":"N/A","gender":"Female (Certain)","location_info":"Non-specific","century_num":-3,"date_start_num":-300,"date_end_num":-201,"date_mid_num":-250,"modern_country":"Greece","citation":"Louvre Collections, CA 574 - https://collections.louvre.fr/en/ark:/53355/cl010262663","record_id":"040-ANT-GRE-V","player_count":1,"has_image":"No","gender_certainty":"Certain","image_filename":"040-ANT-GRE-V.png"}},{"type":"Feature","id":41,"geometry":{"type":"Point","coordinates":[72.361000000000047,34.760000000000048]},"properties":{"OBJECTID":41,"id":41,"name":"Gandharan Lute Player","latitude":34.759999999999998,"longitude":72.361000000000004,"description":"A Gandharan bracket shows a bearded man playing a lute-like instrument. \u003cbr\u003e \u003cbr\u003e \u003cimg src=images/041-ANT-GAN-V.png width=\\\"200\\\"\u003e \u003cbr\u003e \u003cbr\u003e","period":"Antiquity","data_type":"Visual Document","century":"2nd Century CE","geography":"Gandhara","culture":"Kushan-Gandharan","neck_length":"Unknown","soundbox_type":"Unknown","material":"Unknown","string_count":"Unknown","tuning_info":"Unknown","fret_info":"Unknown","visual_design":"Architectural bracket / musician group","performance_type":"Religious Based Context/Performance","right_hand_tech":"Unknown","left_hand_tech":"Unknown","handedness":"Unknown","plectrum_tech":"Unknown","posture":"Standing","performance_mode":"Collective","semantic":"N/A","gender":"Male (Certain)","location_info":"Architectural / Buddhist Context","century_num":2,"date_start_num":101,"date_end_num":200,"date_mid_num":150,"modern_country":"Pakistan","citation":"Cleveland Museum of Art, 1980.15 - https://www.clevelandart.org/art/1980.15","record_id":"041-ANT-GAN-V","player_count":1,"has_image":"Yes","gender_certainty":"Certain","image_filename":"041-ANT-GAN-V.png"}},{"type":"Feature","id":42,"geometry":{"type":"Point","coordinates":[31.216000000000065,29.870000000000061]},"properties":{"OBJECTID":42,"id":42,"name":"Roman-Byzantine Wooden Lute","latitude":29.870000000000001,"longitude":31.216000000000001,"description":"A wooden lute made in Egypt survives as a physical Roman/Byzantine instrument. \u003cbr\u003e \u003cbr\u003e \u003cimg src=images/042-ANT-EGY-P.png width=\\\"200\\\"\u003e \u003cbr\u003e \u003cbr\u003e","period":"Antiquity","data_type":"Physical Object","century":"3rd Century CE","geography":"Egypt","culture":"Roman/Byzantine Egyptian","neck_length":"Long Necked","soundbox_type":"Box","material":"Wood with traces of paint","string_count":"Unknown","tuning_info":"Unknown","fret_info":"Unknown","visual_design":"Physical object","performance_type":"N/A","right_hand_tech":"N/A","left_hand_tech":"N/A","handedness":"N/A","plectrum_tech":"N/A","posture":"N/A","performance_mode":"N/A","semantic":"Physical instrument evidence","gender":"N/A (N/A)","location_info":"Excavation / Museum Context","century_num":3,"date_start_num":201,"date_end_num":300,"date_mid_num":250,"modern_country":"Egypt","citation":"MET Museum, 12.182.44a,b - https://www.metmuseum.org/art/collection/search/473395","record_id":"042-ANT-EGY-P","player_count":0,"has_image":"Yes","gender_certainty":"N/A","image_filename":"042-ANT-EGY-P.png"}},{"type":"Feature","id":43,"geometry":{"type":"Point","coordinates":[82.694000000000074,37.99900000000008]},"properties":{"OBJECTID":43,"id":43,"name":"Niya Wooden Lute Neck","latitude":37.999000000000002,"longitude":82.694000000000003,"description":"A wooden lute neck from Niya preserves tuning pegs, gut strings, and fret evidence. \u003cbr\u003e \u003cbr\u003e \u003cimg src=images/043-ANT-CAS-P.png width=\\\"200\\\"\u003e \u003cbr\u003e \u003cbr\u003e","period":"Antiquity","data_type":"Physical Object","century":"3rd Century CE","geography":"Central Asia","culture":"Niya / Tarim Basin - Central Asian","neck_length":"Long Necked","soundbox_type":"Other","material":"Wood and gut","string_count":"4","tuning_info":"Tuning Pegs Preserved","fret_info":"Gut Fret Evidence","visual_design":"Physical neck fragment with pegs and frets","performance_type":"N/A","right_hand_tech":"N/A","left_hand_tech":"N/A","handedness":"N/A","plectrum_tech":"N/A","posture":"N/A","performance_mode":"N/A","semantic":"Physical instrument evidence","gender":"N/A (N/A)","location_info":"Archaeological Site","century_num":3,"date_start_num":201,"date_end_num":300,"date_mid_num":250,"modern_country":"China","citation":"British Museum, 1907,1111.90 - https://www.britishmuseum.org/collection/object/A_1907-1111-90","record_id":"043-ANT-CAS-P","player_count":0,"has_image":"Yes","gender_certainty":"N/A","image_filename":"043-ANT-CAS-P.png"}}]}