{"type":"FeatureCollection","features":[{"type":"Feature","id":1,"geometry":{"type":"Polygon","coordinates":[[[45.429871935000051,32.247757790000037],[45.431795399000066,32.263237179000043],[45.433299711000075,32.278750021000064],[45.43438386300005,32.294288117000065],[45.435047067000028,32.30984324800005],[45.435288754000055,32.325407183000038],[45.435108582000055,32.340971680000052],[45.434506428000077,32.356528496000067],[45.433482396000045,32.372069384000042],[45.432036812000035,32.387586105000025],[45.43017022600003,32.403070426000056],[45.427883414000064,32.418514129000073],[45.425177376000079,32.433909011000026],[45.422053336000033,32.449246892000076],[45.418512742000075,32.464519620000033],[45.414557266000031,32.479719071000034],[45.410188805000075,32.494837157000063],[45.405409478000081,32.509865828000045],[45.400221624000039,32.524797080000042],[45.394627806000074,32.539622954000038],[45.388630808000073,32.554335547000051],[45.382233631000076,32.568927010000039],[45.37543949600007,32.583389554000064],[45.368251839000038,32.597715457000049],[45.360674313000061,32.61189706600004],[45.352710785000056,32.625926801000048],[45.344365332000052,32.639797160000057],[45.335642243000052,32.653500722000047],[45.326546015000076,32.667030153000042],[45.31708135000008,32.680378208000036],[45.307253155000069,32.693537736000053],[45.29706653900007,32.706501684000045],[45.286526809000065,32.719263101000024],[45.275639468000065,32.731815141000027],[45.264410214000065,32.744151069000054],[45.252844936000031,32.756264262000059],[45.240949709000063,32.768148213000075],[45.228730796000036,32.779796536000049],[45.216194638000047,32.791202972000065],[45.20334785700004,32.80236138500004],[45.192774540000073,32.81112870100003],[45.201046246000033,32.820198766000033],[45.211956121000071,32.832744262000062],[45.222524215000078,32.84549747300008],[45.232744857000057,32.858451731000059],[45.242612549000057,32.871600259000047],[45.252121974000033,32.884936178000032],[45.256948143000045,32.892068470000027],[45.25967405800003,32.894787529000041],[45.271262989000036,32.906897628000024],[45.282521643000052,32.919228439000051],[45.293444002000058,32.931773522000071],[45.304024216000073,32.94452632000008],[45.314256608000051,32.95748016500005],[45.324135674000047,32.970628282000064],[45.333656090000034,32.983963790000075],[45.342812711000079,32.997479709000061],[45.351600576000067,33.011168961000067],[45.360014909000029,33.025024371000029],[45.368051127000058,33.039038678000054],[45.375704835000079,33.053204532000052],[45.382971836000081,33.067514500000073],[45.389848126000061,33.081961070000034],[45.396329903000037,33.096536655000079],[45.402413568000043,33.111233598000069],[45.408095724000077,33.126044172000036],[45.413373180000065,33.140960588000041],[45.418242955000039,33.155974996000054],[45.422702276000052,33.171079493000036],[45.426748584000052,33.186266122000063],[45.430379532000075,33.201526880000074],[45.433592992000058,33.216853722000053],[45.436387048000029,33.232238561000031],[45.438760007000042,33.247673278000036],[45.440710393000074,33.263149721000048],[45.442236953000076,33.27865971500006],[45.443338654000058,33.294195061000039],[45.444014688000038,33.309747541000036],[45.444264471000054,33.325308926000048],[45.444087643000046,33.340870977000066],[45.443484070000068,33.356425451000064],[45.442453845000045,33.371964104000028],[45.440997286000027,33.387478695000027],[45.439114939000035,33.402960993000079],[45.436807577000081,33.418402780000065],[45.43407620000005,33.433795854000039],[45.430922034000048,33.449132035000048],[45.427346533000048,33.464403170000026],[45.423351379000053,33.479601134000063],[45.41893847700004,33.494717839000032],[45.414109960000076,33.509745235000025],[45.408868186000063,33.524675316000071],[45.40321573500006,33.539500123000039],[45.397155413000064,33.554211749000046],[45.39069024500003,33.568802345000051],[45.383823481000036,33.583264120000024],[45.376558586000044,33.597589351000067],[45.368899247000058,33.611770381000042],[45.360849366000025,33.625799628000038],[45.352413058000081,33.639669588000061],[45.343594655000061,33.653372837000063],[45.33439869700004,33.666902039000036],[45.324829933000046,33.680249945000071],[45.314893321000056,33.693409401000054],[45.304594020000081,33.706373352000071],[45.293937394000068,33.719134842000074],[45.282929003000049,33.731687024000053],[45.271574606000058,33.744023156000026],[45.259880155000076,33.75613661400007],[45.247851791000073,33.768020886000045],[45.235495845000059,33.779669585000079],[45.222818829000062,33.791076444000055],[45.209827439000037,33.802235326000073],[45.196528547000071,33.813140225000041],[45.182929197000078,33.823785268000051],[45.169036606000077,33.834164721000036],[45.154858155000056,33.844272991000025],[45.140401388000043,33.854104628000073],[45.125674008000033,33.863654331000077],[45.110683870000059,33.872916947000078],[45.09543898000004,33.881887479000056],[45.079947489000062,33.89056108300008],[45.064217689000031,33.898933077000038],[45.04825801000004,33.906998937000026],[45.032077009000034,33.914754307000067],[45.015683376000027,33.922194994000051],[44.999085917000059,33.929316976000052],[44.982293560000073,33.936116401000049],[44.965315342000054,33.942589593000037],[44.948160408000035,33.948733049000055],[44.930838005000055,33.95454344500007],[44.913357477000034,33.960017635000042],[44.895728258000076,33.965152657000033],[44.877959870000041,33.969945729000074],[44.860061912000049,33.974394257000029],[44.842044060000035,33.978495830000043],[44.823916061000034,33.982248226000024],[44.805687724000052,33.985649414000079],[44.787368914000069,33.988697548000061],[44.772424713000078,33.99088518800005],[44.773635296000066,33.992650454000056],[44.782528556000045,34.00633558800007],[44.791044142000032,34.020186913000032],[44.799177408000048,34.034197171000073],[44.80692390400003,34.048359018000042],[44.81427937400008,34.062665026000047],[44.821239761000072,34.077107689000059],[44.827801211000065,34.091679422000027],[44.833960072000025,34.106372574000034],[44.839712900000052,34.121179421000079],[44.845056459000034,34.136092179000059],[44.849987721000048,34.15110300200007],[44.854503872000066,34.166203991000032],[44.858602314000052,34.181387192000045],[44.862280662000046,34.196644606000064],[44.865536750000047,34.21196819000005],[44.868368632000056,34.22734986200004],[44.870774582000081,34.24278150300006],[44.872753096000054,34.258254967000028],[44.874302896000074,34.273762079000051],[44.875422925000066,34.289294642000073],[44.876112354000043,34.304844442000046],[44.876370580000071,34.320403250000027],[44.87619722800008,34.335962830000028],[44.875592150000045,34.351514938000037],[44.874555429000054,34.367051332000074],[44.873087374000079,34.382563773000072],[44.871188527000072,34.398044030000051],[44.868859658000076,34.413483885000062],[44.866101765000053,34.428875137000034],[44.862916081000037,34.444209605000026],[44.859304063000081,34.459479136000027],[44.855267402000038,34.474675605000073],[44.850808015000041,34.489790923000044],[44.845928048000076,34.504817039000045],[44.840629877000026,34.519745946000057],[44.834916103000069,34.534569684000076],[44.828789553000036,34.549280345000057],[44.822253279000051,34.563870076000057],[44.815310559000068,34.578331087000038],[44.807964890000051,34.59265565000004],[44.800219994000031,34.606836108000039],[44.792079809000029,34.620864876000041],[44.783548492000079,34.634734448000074],[44.774630417000026,34.648437396000077],[44.765330171000073,34.66196638100007],[44.755652552000072,34.675314153000045],[44.745602569000027,34.688473553000051],[44.735185437000041,34.701437524000028],[44.724406576000035,34.714199106000024],[44.71327160900006,34.726751447000026],[44.701786356000071,34.739087805000054],[44.689956836000079,34.75120154800004],[44.677789260000054,34.763086164000072],[44.665290028000072,34.774735260000057],[44.652465728000038,34.786142566000024],[44.639323133000062,34.797301941000057],[44.625869194000074,34.808207375000052],[44.612111037000034,34.818852991000028],[44.598055964000025,34.829233050000028],[44.583711443000027,34.839341957000045],[44.569085108000081,34.849174257000072],[44.554184753000072,34.858724644000063],[44.539018329000044,34.867987963000076],[44.523593938000033,34.876959211000042],[44.507919829000059,34.885633542000051],[44.492004397000073,34.894006269000045],[44.475856171000032,34.902072865000036],[44.45948381900007,34.909828969000046],[44.442896133000033,34.917270386000041],[44.426102032000074,34.924393090000024],[44.409110553000062,34.931193226000062],[44.406861973000048,34.932040566000069],[44.406774649000056,34.934281401000078],[44.405733966000071,34.949816459000033],[44.404258906000052,34.965327628000068],[44.402350007000052,34.980806678000079],[44.400008036000031,34.996245391000059],[44.397233993000043,35.011635567000042],[44.394029112000055,35.026969024000039],[44.390394854000078,35.04223760900004],[44.386332914000036,35.05743319700008],[44.381845217000034,35.072547698000051],[44.376933919000066,35.087573062000047],[44.371601403000057,35.10250127900008],[44.365850285000079,35.117324390000078],[44.359683405000055,35.132034485000077],[44.353103831000055,35.146623711000075],[44.346114857000032,35.161084276000054],[44.338720002000059,35.175408451000067],[44.330923006000035,35.189588579000031],[44.322727832000055,35.203617072000043],[44.314138661000072,35.217486422000036],[44.305159893000052,35.231189201000063],[44.295796143000075,35.244718067000065],[44.28605224000006,35.258065768000051],[44.275933223000038,35.271225146000063],[44.26544434200008,35.284189137000055],[44.254591051000034,35.296950784000046],[44.24337900900008,35.309503230000075],[44.231814077000081,35.321839731000068],[44.219902313000034,35.333953655000073],[44.207649968000055,35.345838485000058],[44.195063489000063,35.357487827000057],[44.182149507000076,35.368895409000061],[44.168914843000039,35.380055087000073],[44.155366494000077,35.390960848000077],[44.141511640000033,35.401606814000047],[44.127357631000052,35.411987244000045],[44.112911991000033,35.422096539000052],[44.098182406000035,35.431929242000024],[44.08317672700008,35.441480045000048],[44.067902962000062,35.450743791000036],[44.052369273000068,35.459715474000063],[44.036583969000048,35.46839024600007],[44.020555505000061,35.476763417000029],[44.004292476000046,35.484830459000079],[43.987803610000071,35.492587007000054],[43.97109776700006,35.500028866000036],[43.954183932000035,35.507152006000069],[43.937071208000077,35.513952571000061],[43.919768815000054,35.52042687800008],[43.902286083000035,35.526571420000039],[43.884632445000079,35.532382867000024],[43.866817432000062,35.537858070000027],[43.848850673000072,35.542994060000069],[43.830741879000072,35.54778805400008],[43.812500850000049,35.552237452000043],[43.794137457000033,35.556339839000032],[43.77566164600006,35.560092992000079],[43.757083426000065,35.563494873000025],[43.738412869000058,35.566543636000063],[43.71966009700003,35.569237627000064],[43.700835282000071,35.571575385000074],[43.681948637000062,35.573555639000062],[43.663010413000052,35.575177315000076],[43.644030889000078,35.576439532000052],[43.625020369000026,35.577341606000061],[43.605989174000058,35.577883046000068],[43.586947640000062,35.578063559000043],[43.567906106000066,35.577883046000068],[43.548874911000041,35.577341606000061],[43.529864391000046,35.576439532000052],[43.510884867000073,35.575177315000076],[43.491946643000063,35.573555639000062],[43.473059998000053,35.571575385000074],[43.454235183000037,35.569237627000064],[43.435482411000066,35.566543636000063],[43.416811854000059,35.563494873000025],[43.398233634000064,35.560092992000079],[43.379757823000034,35.556339839000032],[43.361394430000075,35.552237452000043],[43.343153401000052,35.54778805400008],[43.325044607000052,35.542994060000069],[43.307077848000063,35.537858070000027],[43.289262835000045,35.532382867000024],[43.271609197000032,35.526571420000039],[43.25412646500007,35.52042687800008],[43.236824072000047,35.513952571000061],[43.219711348000033,35.507152006000069],[43.202797513000064,35.500028866000036],[43.186091670000053,35.492587007000054],[43.169602804000078,35.484830459000079],[43.153339775000063,35.476763417000029],[43.137311311000076,35.46839024600007],[43.121526007000057,35.459715474000063],[43.105992318000062,35.450743791000036],[43.090718553000045,35.441480045000048],[43.075712874000033,35.431929242000024],[43.060983289000035,35.422096539000052],[43.046537649000072,35.411987244000045],[43.032383640000035,35.401606814000047],[43.018528786000047,35.390960848000077],[43.004980437000029,35.380055087000073],[42.991745773000048,35.368895409000061],[42.978831791000061,35.357487827000057],[42.966245312000069,35.345838485000058],[42.953992967000033,35.333953655000073],[42.942081203000043,35.321839731000068],[42.930516271000045,35.309503230000075],[42.919304229000034,35.296950784000046],[42.908450938000044,35.284189137000055],[42.897962057000029,35.271225146000063],[42.887843040000064,35.258065768000051],[42.878099137000049,35.244718067000065],[42.868735387000072,35.231189201000063],[42.859756619000052,35.217486422000036],[42.851167448000069,35.203617072000043],[42.842972274000033,35.189588579000031],[42.835175278000065,35.175408451000067],[42.827780423000036,35.161084276000054],[42.820791449000069,35.146623711000075],[42.814211875000069,35.132034485000077],[42.808044995000046,35.117324390000078],[42.802293877000068,35.10250127900008],[42.796961361000058,35.087573062000047],[42.792050063000033,35.072547698000051],[42.787562366000031,35.05743319700008],[42.783500426000046,35.04223760900004],[42.779866168000069,35.026969024000039],[42.776661287000024,35.011635567000042],[42.773887244000036,34.996245391000059],[42.771545273000072,34.980806678000079],[42.769636374000072,34.965327628000068],[42.768161314000054,34.949816459000033],[42.767120631000068,34.934281401000078],[42.766514631000064,34.918730693000043],[42.766343390000031,34.903172578000067],[42.76660675100004,34.887615296000035],[42.767304331000048,34.872067085000026],[42.768435514000032,34.856536171000073],[42.769999458000029,34.841030768000053],[42.771995094000033,34.825559071000043],[42.774421127000039,34.810129253000071],[42.777276035000057,34.794749461000038],[42.780558073000066,34.779427810000072],[42.784265277000031,34.764172381000037],[42.788395457000036,34.748991214000057],[42.792946207000057,34.733892308000065],[42.797914903000049,34.71888361300006],[42.803298706000078,34.703973027000075],[42.809094561000052,34.689168392000056],[42.815299205000031,34.67447749300004],[42.821909162000054,34.659908047000044],[42.828920751000055,34.64546770700008],[42.836330085000043,34.631164051000042],[42.844133075000059,34.617004584000028],[42.852325430000064,34.602996732000065],[42.860902665000026,34.589147834000073],[42.869860097000071,34.575465147000045],[42.879192852000074,34.561955835000049],[42.888895867000031,34.548626968000065],[42.898963894000076,34.535485519000076],[42.909391498000048,34.522538358000077],[42.920173067000064,34.509792253000057],[42.93130281100008,34.497253863000026],[42.942774765000081,34.484929734000048],[42.954582795000078,34.472826299000076],[42.966720599000041,34.46094987400005],[42.979181710000034,34.449306651000029],[42.991959504000079,34.437902701000041],[43.005047196000078,34.42674396600006],[43.018437850000055,34.415836259000059],[43.032124380000027,34.405185259000064],[43.046099555000069,34.394796511000038],[43.060356002000049,34.384675420000065],[43.074886207000077,34.374827250000067],[43.089682526000047,34.365257123000049],[43.104737181000075,34.355970012000057],[43.120042269000066,34.346970744000032],[43.135589765000077,34.338263993000055],[43.151371525000059,34.329854280000063],[43.167379291000032,34.321745973000077],[43.183604696000032,34.313943278000067],[43.200039265000044,34.306450245000065],[43.216674424000075,34.29927076000007],[43.233501499000056,34.292408548000026],[43.247708636000027,34.286945109000044],[43.248659244000066,34.273762079000051],[43.25020904400003,34.258254967000028],[43.25218755800006,34.24278150300006],[43.254593508000028,34.22734986200004],[43.257425390000037,34.21196819000005],[43.260681478000038,34.196644606000064],[43.264359826000032,34.181387192000045],[43.268458268000074,34.166203991000032],[43.272974419000036,34.15110300200007],[43.27790568100005,34.136092179000059],[43.283249240000032,34.121179421000079],[43.289002068000059,34.106372574000034],[43.295160929000076,34.091679422000027],[43.301722379000068,34.077107689000059],[43.308682766000061,34.062665026000047],[43.316038236000054,34.048359018000042],[43.323784732000036,34.034197171000073],[43.331917998000051,34.020186913000032],[43.340433584000039,34.00633558800007],[43.349326844000075,33.992650454000056],[43.35859294200003,33.979138679000073],[43.368226853000067,33.965807336000069],[43.378223368000079,33.952663401000052],[43.388577094000027,33.939713748000031],[43.399282461000041,33.926965148000079],[43.41033371900005,33.914424263000058],[43.421724949000065,33.902097642000058],[43.433450060000041,33.889991723000037],[43.445502796000028,33.878112822000048],[43.45787673600006,33.866467139000065],[43.470565302000068,33.85506074500006],[43.483561757000075,33.843899587000067],[43.49685921400004,33.832989480000037],[43.51045063600003,33.822336108000059],[43.524328842000045,33.811945018000074],[43.538486508000062,33.801821619000066],[43.552916174000075,33.791971179000029],[43.567610244000036,33.782398821000072],[43.582560996000041,33.773109524000063],[43.597760578000077,33.764108116000045],[43.61320101900003,33.755399275000059],[43.628874230000065,33.746987526000055],[43.644772007000029,33.738877238000043],[43.660886037000068,33.731072621000067],[43.667028994000077,33.728251815000078],[43.658086491000063,33.715784321000058],[43.64888552900004,33.702255131000072],[43.640062344000057,33.688551897000025],[43.631621478000056,33.674681956000029],[43.62356726400003,33.660652733000063],[43.615903819000039,33.646471731000076],[43.608635049000043,33.632146533000025],[43.601764640000056,33.617684796000049],[43.595296062000045,33.603094242000054],[43.589232562000063,33.588382663000061],[43.585374434000073,33.578269166000041],[43.568356774000051,33.578103973000054],[43.549775985000053,33.577562679000039],[43.531215345000078,33.576660849000064],[43.512684913000044,33.575398971000027],[43.494194733000029,33.573777729000028],[43.475754822000056,33.571798002000037],[43.457375171000081,33.569460862000028],[43.439065734000053,33.566767576000075],[43.420836426000051,33.563719604000028],[43.40269711500008,33.560318595000069],[43.384657615000037,33.556566393000026],[43.366727686000047,33.552465030000064],[43.34891702200008,33.548016727000061],[43.331235248000041,33.543223892000071],[43.313691915000049,33.538089120000052],[43.296296495000036,33.532615191000048],[43.279058374000044,33.526805066000065],[43.26198684700006,33.520661890000042],[43.245091113000058,33.514188985000033],[43.228380272000038,33.507389852000074],[43.211863313000038,33.500268168000048],[43.195549119000077,33.492827782000063],[43.179446453000025,33.485072715000058],[43.163563958000054,33.477007158000049],[43.147910152000065,33.46863546700007],[43.13249341900007,33.459962162000068],[43.117322012000045,33.450991925000039],[43.102404040000067,33.441729598000052],[43.087747470000068,33.432180177000077],[43.073360118000039,33.422348811000063],[43.059249651000073,33.412240803000032],[43.04542357400004,33.401861598000039],[43.031889234000062,33.391216789000055],[43.018653812000025,33.380312109000045],[43.00572432000007,33.369153428000061],[42.993107597000062,33.357746750000047],[42.980810305000034,33.346098213000062],[42.968838929000071,33.334214079000049],[42.957199769000056,33.322100735000049],[42.945898938000028,33.309764691000055],[42.934942362000072,33.297212571000046],[42.924335772000063,33.284451114000035],[42.91408470500005,33.271487166000043],[42.904194500000074,33.258327681000026],[42.894670296000072,33.244979714000067],[42.885517027000049,33.231450417000076],[42.87673942300006,33.217747036000048],[42.868342006000034,33.20387690900003],[42.860329088000071,33.189847456000052],[42.852704770000059,33.175666182000043],[42.845472938000057,33.161340668000037],[42.838637263000066,33.146878568000034],[42.832201200000043,33.132287606000034],[42.826167985000041,33.117575571000032],[42.820540634000054,33.102750312000069],[42.815321942000026,33.087819736000029],[42.810514482000031,33.072791800000061],[42.806120605000046,33.057674511000073],[42.802142437000043,33.042475917000047],[42.798581880000029,33.027204108000035],[42.79544061200005,33.011867206000034],[42.792720084000052,32.996473366000032],[42.790421521000042,32.981030768000039],[42.788545923000072,32.96554761200008],[42.787094065000076,32.950032118000024],[42.786066494000067,32.93449251800007],[42.785463531000062,32.918937052000047],[42.785285275000035,32.903373963000035],[42.785531596000055,32.88781149700003],[42.786202141000047,32.87225789300004],[42.787296333000029,32.856721381000057],[42.788813374000028,32.841210179000029],[42.790752239000028,32.825732487000039],[42.793111687000078,32.810296482000069],[42.795890254000028,32.794910316000028],[42.799086257000056,32.779582110000035],[42.802697797000064,32.764319951000061],[42.806722758000035,32.749131886000043],[42.811158809000062,32.734025920000079],[42.816003408000029,32.71901001100008],[42.821253799000033,32.704092064000065],[42.826907019000032,32.689279930000055],[42.83295989700008,32.674581400000079],[42.839409055000033,32.660004202000039],[42.846250914000052,32.645555996000041],[42.853481694000038,32.631244371000037],[42.861097415000074,32.617076841000028],[42.869093900000053,32.603060840000069],[42.877466781000066,32.589203720000057],[42.88621149800008,32.575512746000072],[42.89532329900004,32.561995093000064],[42.904797252000037,32.548657841000079],[42.914628237000045,32.53550797500003],[42.924810956000044,32.522552376000078],[42.935339936000048,32.509797823000042],[42.946209526000075,32.497250984000061],[42.957413906000056,32.484918419000053],[42.968947089000039,32.472806572000025],[42.980802923000056,32.460921770000027],[42.99297509400003,32.449270216000059],[43.00545713200006,32.43785799300008],[43.018242412000063,32.426691055000049],[43.031324157000029,32.415775225000061],[43.04469544400007,32.405116196000051],[43.058349208000038,32.39471952100007],[43.072278242000039,32.384590619000051],[43.086475204000067,32.374734764000038],[43.100932619000048,32.365157088000046],[43.115642884000067,32.355862577000039],[43.130598272000043,32.346856067000033],[43.145790936000026,32.33814224300005],[43.161212910000074,32.32972563800007],[43.176856118000046,32.321610627000041],[43.192712375000042,32.31380142900008],[43.208773391000079,32.306302101000028],[43.22503077600004,32.299116539000067],[43.24147604500007,32.292248477000044],[43.25810062100004,32.285701481000046],[43.274895838000077,32.279478949000065],[43.291852949000031,32.273584113000027],[43.308963128000073,32.268020030000059],[43.326217472000053,32.262789590000068],[43.343607011000074,32.257895504000032],[43.361122708000039,32.253340312000034],[43.378755464000051,32.249126377000039],[43.396496126000045,32.245255884000073],[43.414335485000038,32.24173083900007],[43.432264286000077,32.238553070000023],[43.450273232000029,32.23572422500007],[43.468352984000035,32.233245770000053],[43.48649417200005,32.231118990000027],[43.50468739400003,32.229344987000047],[43.522923224000067,32.227924680000058],[43.541192214000034,32.226858805000063],[43.559484902000065,32.22614791500007],[43.577791813000033,32.225792377000062],[43.596103467000034,32.225792377000062],[43.614410378000059,32.22614791500007],[43.632703066000033,32.226858805000063],[43.650972056000057,32.227924680000058],[43.669207886000038,32.229344987000047],[43.687401108000074,32.231118990000027],[43.705542296000033,32.233245770000053],[43.709369240000058,32.233770385000071],[43.713346007000041,32.227160606000041],[43.72205441300008,32.213468165000052],[43.731128499000079,32.199949035000031],[43.740563351000048,32.186610300000041],[43.750353876000077,32.17345894400006],[43.760494796000046,32.160501851000049],[43.770980662000056,32.147745803000078],[43.781805847000044,32.135197469000047],[43.792964557000062,32.122863412000072],[43.804450829000075,32.110750076000045],[43.816258537000067,32.098863791000042],[43.82838139200004,32.087210764000076],[43.840812952000078,32.075797077000061],[43.853546617000063,32.064628687000038],[43.866575640000065,32.05371142100006],[43.879893124000034,32.043050971000071],[43.89349203300003,32.03265289400008],[43.907365187000039,32.022522610000067],[43.921505275000072,32.012665395000056],[43.935904851000032,32.003086385000074],[43.940939487000037,31.999892098000032],[43.942455434000067,31.997502526000062],[43.95150734200007,31.98398252100003],[43.96091920300006,31.970642905000034],[43.970685935000063,31.95749066500008],[43.980802276000077,31.944532687000049],[43.991262790000064,31.931775751000032],[44.002061864000041,31.91922653000006],[44.013193719000071,31.906891588000065],[44.02465240600003,31.894777369000053],[44.036431814000025,31.882890205000024],[44.04852567100005,31.871236303000046],[44.060927549000041,31.859821748000059],[44.073630864000052,31.848652498000035],[44.086628885000039,31.83773437900004],[44.099914733000048,31.827073086000041],[44.113481386000046,31.816674178000028],[44.127321684000037,31.806543074000047],[44.141428329000064,31.796685053000033],[44.155793895000045,31.787105251000071],[44.170410825000033,31.777808654000069],[44.185271440000065,31.768800104000036],[44.200367939000046,31.76008428800003],[44.215692407000063,31.751665740000078],[44.231236817000081,31.743548841000063],[44.246993032000034,31.735737809000057],[44.262952813000027,31.728236708000054],[44.279107821000025,31.721049435000054],[44.295449619000067,31.714179724000076],[44.311969683000029,31.70763114600004],[44.32865939900006,31.701407102000076],[44.345510071000035,31.695510824000053],[44.362512924000043,31.689945373000057],[44.379659108000055,31.684713639000051],[44.396939707000058,31.679818338000075],[44.41434573500004,31.675262009000051],[44.431868147000046,31.671047018000024],[44.449497842000028,31.667175551000071],[44.467225665000058,31.663649616000043],[44.485042417000045,31.66047104300003],[44.502938851000067,31.657641479000063],[44.52090568400007,31.655162393000069],[44.538933600000064,31.653035070000044],[44.557013250000068,31.651260613000034],[44.575135264000039,31.649839942000028],[44.593290247000027,31.648773794000078],[44.611468793000029,31.648062722000077],[44.629661479000049,31.647707093000065],[44.647858881000047,31.647707093000065],[44.666051567000068,31.648062722000077],[44.684230113000069,31.648773794000078],[44.702385096000057,31.649839942000028],[44.720507110000028,31.651260613000034],[44.738586760000032,31.653035070000044],[44.756614676000027,31.655162393000069],[44.774581509000029,31.657641479000063],[44.792477943000051,31.66047104300003],[44.810294695000039,31.663649616000043],[44.828022518000068,31.667175551000071],[44.845652213000051,31.671047018000024],[44.863174625000056,31.675262009000051],[44.880580653000038,31.679818338000075],[44.897861252000041,31.684713639000051],[44.915007436000053,31.689945373000057],[44.932010289000061,31.695510824000053],[44.948860961000037,31.701407102000076],[44.965550677000067,31.70763114600004],[44.98207074100003,31.714179724000076],[44.998412539000071,31.721049435000054],[45.000123592000079,31.72181067300005],[44.99804522900007,31.719388929000047],[44.987616716000048,31.706627573000048],[44.97753730900007,31.693663615000048],[44.967812263000042,31.680504006000035],[44.95844663500003,31.667155793000063],[44.94944528700006,31.653626126000063],[44.940812875000063,31.639922246000026],[44.932553854000048,31.626051485000062],[44.924672474000033,31.612021261000052],[44.917172776000029,31.597839073000046],[44.910058592000041,31.58351250000004],[44.903333543000031,31.569049191000033],[44.897001038000042,31.554456868000045],[44.891064272000051,31.539743318000035],[44.885526221000077,31.524916386000029],[44.880389650000041,31.509983976000058],[44.875657101000058,31.494954045000043],[44.871330901000078,31.479834597000036],[44.867413154000076,31.464633680000077],[44.863905747000047,31.449359381000079],[44.860810345000061,31.434019824000075],[44.858128390000047,31.418623161000028],[44.855861104000041,31.403177572000061],[44.854009487000042,31.387691260000054],[44.852574316000073,31.372172443000068],[44.851556148000043,31.356629355000052],[44.850955316000068,31.341070236000064],[44.850771932000043,31.325503334000075],[44.851005887000042,31.309936893000042],[44.851656852000076,31.294379157000037],[44.85272427600006,31.27883835800003],[44.854207392000035,31.263322717000051],[44.856105210000067,31.247840436000047],[44.858416526000042,31.232399697000062],[44.861139918000049,31.217008656000075],[44.864273749000063,31.201675439000041],[44.867816167000058,31.186408136000068],[44.871765108000034,31.17121479900004],[44.876118298000051,31.156103440000038],[44.880873251000025,31.141082020000056],[44.886027273000025,31.126158452000027],[44.891577467000047,31.111340591000044],[44.897520729000064,31.096636237000041],[44.903853753000078,31.082053121000058],[44.910573032000059,31.06759891300004],[44.917674863000059,31.053281207000055],[44.925155346000054,31.039107525000077],[44.933010387000081,31.02508530800003],[44.941235702000029,31.011221916000068],[44.94982681700003,30.997524621000025],[44.958779073000073,30.984000607000041],[44.968087629000081,30.970656963000067],[44.977747460000046,30.957500679000077],[44.987753367000039,30.944538647000059],[44.99809997400007,30.931777652000051],[45.008781734000081,30.919224374000066],[45.01979293100004,30.906885380000062],[45.031127684000069,30.894767121000029],[45.042779948000032,30.882875934000026],[45.054743521000034,30.871218032000058],[45.06701204500007,30.859799505000069],[45.079579007000063,30.848626316000036],[45.092437748000066,30.837704298000062],[45.105581463000078,30.827039150000076],[45.11900320500007,30.816636436000067],[45.132695888000057,30.806501583000056],[45.146652292000056,30.796639873000061],[45.160865067000032,30.787056447000055],[45.175326736000045,30.777756299000032],[45.190029697000057,30.768744273000038],[45.204966232000061,30.760025062000068],[45.220128505000048,30.751603207000073],[45.235508570000036,30.743483090000041],[45.251098373000048,30.73566893800006],[45.266889758000048,30.728164815000071],[45.282874469000035,30.720974626000043],[45.299044155000047,30.714102109000066],[45.315390376000039,30.707550837000042],[45.331904603000055,30.701324216000046],[45.348578226000029,30.695425483000065],[45.365402556000049,30.689857701000051],[45.382368833000044,30.684623765000026],[45.399468224000032,30.679726393000067],[45.416691834000062,30.675168128000053],[45.434030705000055,30.670951338000066],[45.451475825000045,30.667078212000035],[45.469018128000073,30.663550761000067],[45.486648502000037,30.660370817000057],[45.504357792000064,30.657540030000064],[45.522136805000059,30.65505986900007],[45.539976312000078,30.65293162100005],[45.557867057000067,30.651156392000075],[45.575799758000073,30.649735102000079],[45.593765113000075,30.648668488000055],[45.611753802000067,30.647957105000046],[45.629756498000063,30.647601321000025],[45.647763862000033,30.647601321000025],[45.66576655800003,30.647957105000046],[45.683755247000079,30.648668488000055],[45.70172060200008,30.649735102000079],[45.71965330300003,30.651156392000075],[45.737544048000075,30.65293162100005],[45.755383555000037,30.65505986900007],[45.773162568000032,30.657540030000064],[45.79087185800006,30.660370817000057],[45.80850223200008,30.663550761000067],[45.826044535000051,30.667078212000035],[45.843489655000042,30.670951338000066],[45.860828526000034,30.675168128000053],[45.878052136000065,30.679726393000067],[45.895151527000053,30.684623765000026],[45.912117804000047,30.689857701000051],[45.928942134000067,30.695425483000065],[45.945615757000041,30.701324216000046],[45.962129984000057,30.707550837000042],[45.97847620500005,30.714102109000066],[45.994645891000062,30.720974626000043],[46.010630602000049,30.728164815000071],[46.026421987000049,30.73566893800006],[46.042011790000061,30.743483090000041],[46.057391855000049,30.751603207000073],[46.072554128000036,30.760025062000068],[46.08749066300004,30.768744273000038],[46.102193624000051,30.777756299000032],[46.116655293000065,30.787056447000055],[46.130868068000041,30.796639873000061],[46.144824472000039,30.806501583000056],[46.158517155000027,30.816636436000067],[46.171938897000075,30.827039150000076],[46.185082612000031,30.837704298000062],[46.197941353000033,30.848626316000036],[46.210508315000027,30.859799505000069],[46.222776839000062,30.871218032000058],[46.234740412000065,30.882875934000026],[46.246392676000028,30.894767121000029],[46.257727429000056,30.906885380000062],[46.268738626000072,30.919224374000066],[46.279420386000027,30.931777652000051],[46.289766993000057,30.944538647000059],[46.29977290000005,30.957500679000077],[46.309432731000072,30.970656963000067],[46.31874128700008,30.984000607000041],[46.327693543000066,30.997524621000025],[46.336284658000068,31.011221916000068],[46.344509973000072,31.02508530800003],[46.352365014000043,31.039107525000077],[46.359845497000038,31.053281207000055],[46.366947328000037,31.06759891300004],[46.373666607000075,31.082053121000058],[46.379999631000032,31.096636237000041],[46.385942893000049,31.111340591000044],[46.391493087000072,31.126158452000027],[46.396647109000071,31.141082020000056],[46.401402062000045,31.156103440000038],[46.405755252000063,31.17121479900004],[46.409704193000039,31.186408136000068],[46.413246611000034,31.201675439000041],[46.416380442000047,31.217008656000075],[46.419103834000055,31.232399697000062],[46.42141515000003,31.247840436000047],[46.423312968000062,31.263322717000051],[46.424796084000036,31.27883835800003],[46.425863508000077,31.294379157000037],[46.426514473000054,31.309936893000042],[46.426748428000053,31.325503334000075],[46.426565044000029,31.341070236000064],[46.425964212000054,31.356629355000052],[46.42494604400008,31.372172443000068],[46.423510873000055,31.387691260000054],[46.421659256000055,31.403177572000061],[46.419391970000049,31.418623161000028],[46.416710015000035,31.434019824000075],[46.41361461300005,31.449359381000079],[46.410107206000077,31.464633680000077],[46.406189459000075,31.479834597000036],[46.401863259000038,31.494954045000043],[46.397130710000056,31.509983976000058],[46.391994139000076,31.524916386000029],[46.386456088000045,31.539743318000035],[46.380519322000055,31.554456868000045],[46.374186817000066,31.569049191000033],[46.367461768000055,31.58351250000004],[46.360347584000067,31.597839073000046],[46.352847886000063,31.612021261000052],[46.344966506000048,31.626051485000062],[46.336707485000034,31.639922246000026],[46.328075073000036,31.653626126000063],[46.319073725000067,31.667155793000063],[46.309708097000055,31.680504006000035],[46.299983051000027,31.693663615000048],[46.289903644000049,31.706627573000048],[46.279475131000027,31.719388929000047],[46.268702962000077,31.731940844000064],[46.257592775000035,31.744276583000044],[46.246150400000033,31.756389527000067],[46.234381850000034,31.768273174000058],[46.222293320000063,31.779921142000035],[46.209891187000039,31.79132717400006],[46.197182000000055,31.802485138000065],[46.184172484000044,31.813389037000036],[46.170869531000051,31.824033006000036],[46.15728019800008,31.834411319000026],[46.143411704000073,31.844518389000029],[46.12927142500007,31.854348775000062],[46.114866893000055,31.863897183000063],[46.10020578600006,31.873158469000032],[46.085295931000076,31.882127642000057],[46.070145294000042,31.890799867000055],[46.054761978000045,31.899170468000079],[46.039154218000078,31.907234930000072],[46.023330380000061,31.914988902000061],[46.007298948000027,31.922428199000024],[45.991068528000028,31.929548806000071],[45.974647840000046,31.936346879000041],[45.958045710000079,31.942818746000057],[45.941271070000028,31.948960911000029],[45.924332951000054,31.954770056000029],[45.907240476000027,31.960243041000069],[45.890002858000059,31.965376909000042],[45.872629393000068,31.970168884000032],[45.855129454000064,31.974616375000039],[45.837512488000073,31.978716977000033],[45.819788010000025,31.98246847300004],[45.80196559400008,31.98586883400003],[45.784054873000059,31.988916219000032],[45.766065530000049,31.99160898100007],[45.748007293000057,31.993945662000044],[45.72988993000007,31.995924997000031],[45.711723244000041,31.997545916000036],[45.693517064000048,31.998807542000065],[45.675281245000065,31.999709191000079],[45.65702565600003,32.000250376000054],[45.638760180000077,32.000430803000029],[45.620494704000066,32.000250376000054],[45.602239115000032,31.999709191000079],[45.584003296000049,31.998807542000065],[45.565797116000056,31.997545916000036],[45.547630430000027,31.995924997000031],[45.529513067000039,31.993945662000044],[45.511454830000048,31.99160898100007],[45.493465487000037,31.988916219000032],[45.475554766000073,31.98586883400003],[45.457732350000072,31.98246847300004],[45.440007872000081,31.978716977000033],[45.422390906000032,31.974616375000039],[45.404890967000028,31.970168884000032],[45.387517502000037,31.965376909000042],[45.37027988400007,31.960243041000069],[45.353187409000043,31.954770056000029],[45.336249290000069,31.948960911000029],[45.319474650000075,31.942818746000057],[45.302872520000051,31.936346879000041],[45.286451832000068,31.929548806000071],[45.283061070000031,31.928061211000056],[45.286257570000032,31.931775751000032],[45.296718084000076,31.944532687000049],[45.306834425000034,31.95749066500008],[45.316601157000036,31.970642905000034],[45.326013018000026,31.98398252100003],[45.33506492600003,31.997502526000062],[45.343751980000036,32.011195838000049],[45.352069465000056,32.025055277000035],[45.360012853000057,32.039073577000067],[45.367577807000032,32.053243382000062],[45.374760181000056,32.067557256000043],[45.381556027000045,32.082007682000039],[45.387961591000078,32.096587068000076],[45.393973322000079,32.111287751000077],[45.399587870000062,32.126102003000028],[45.404802089000043,32.141022028000066],[45.409613040000067,32.156039975000056],[45.414017990000048,32.171147935000079],[45.418014419000031,32.186337948000073],[45.42160001700006,32.201602009000055],[45.424772687000029,32.216932068000062],[45.42753054800005,32.232320036000033],[45.429871935000051,32.247757790000037]]]},"properties":{"OBJECTID":1,"Shape_Length":16.068502607557839,"Shape_Area":8.8095065514199611}}]}