{"type":"FeatureCollection","features":[{"type":"Feature","id":1,"geometry":{"type":"Polygon","coordinates":[[[48.273083754000027,31.493661180000061],[48.291246554000054,31.494016833000046],[48.309395234000078,31.494727953000051],[48.327520388000039,31.495794174000025],[48.345612621000043,31.497214941000038],[48.363662556000065,31.49898951800003],[48.381660834000058,31.501116984000078],[48.399598122000043,31.503596237000068],[48.417465117000063,31.506425991000071],[48.43525255000003,31.50960477700005],[48.452951191000068,31.513130947000036],[48.470551851000039,31.517002672000046],[48.48804539200006,31.521217943000067],[48.505422724000027,31.525774572000046],[48.522674818000041,31.530670195000027],[48.539792703000046,31.535902271000054],[48.556767473000036,31.54146808400003],[48.573590295000031,31.547364744000049],[48.590252406000047,31.553589188000046],[48.606745124000042,31.560138184000039],[48.623059849000072,31.567008331000068],[48.639188069000056,31.574196057000051],[48.655121361000056,31.581697628000029],[48.67085140000006,31.589509143000043],[48.686369958000057,31.597626543000047],[48.701668913000049,31.60604560400003],[48.716740251000033,31.614761947000034],[48.731576067000049,31.623771038000029],[48.74616857400008,31.63306818600006],[48.760510107000073,31.642648551000036],[48.774593120000077,31.652507145000072],[48.788410198000065,31.662638831000038],[48.801954058000035,31.673038330000054],[48.815217549000067,31.683700222000027],[48.828193663000036,31.694618946000048],[48.840875531000052,31.705788808000079],[48.85325643300007,31.717203980000079],[48.865329797000072,31.728858503000026],[48.87708920700004,31.74074629200004],[48.88852840100003,31.752861138000071],[48.899641278000047,31.765196711000044],[48.910421900000074,31.777746561000072],[48.920864498000071,31.790504127000077],[48.930963470000052,31.803462735000039],[48.940713388000063,31.816615603000059],[48.950109001000044,31.82995584400004],[48.95914523600004,31.843476473000067],[48.967817201000059,31.857170403000055],[48.976120189000028,31.871030456000028],[48.98404968300008,31.885049364000054],[48.991601351000043,31.899219771000048],[48.99377415400005,31.903557817000035],[48.999723323000069,31.914719180000077],[49.006894301000045,31.929033589000028],[49.013679312000079,31.943484543000068],[49.02007461200003,31.958064450000052],[49.026076656000043,31.972765646000028],[49.031682098000033,31.987580402000049],[49.036887800000045,32.002500922000024],[49.041690827000082,32.017519354000058],[49.046088455000074,32.03262778800007],[49.050078165000059,32.047818266000036],[49.053657654000062,32.063082779000069],[49.056824830000039,32.078413279000074],[49.059577815000068,32.093801676000055],[49.061914948000037,32.109239847000026],[49.062559190000059,32.114434423000034],[49.062983838000036,32.117239181000059],[49.064903884000046,32.132718950000026],[49.06640537100003,32.148232161000067],[49.067487294000045,32.163770612000064],[49.068148867000048,32.17932608600006],[49.068389525000043,32.194890350000037],[49.068208926000068,32.210455164000052],[49.067606951000073,32.226012282000056],[49.066583703000049,32.241553460000034],[49.065139509000062,32.257070456000065],[49.063274922000062,32.272555039000054],[49.060990716000049,32.287998990000062],[49.058287892000067,32.303394106000042],[49.055167673000028,32.318732208000029],[49.051631507000081,32.334005142000024],[49.047681065000063,32.34920478500004],[49.043318242000055,32.364323050000053],[49.038545155000065,32.379351887000041],[49.033364142000039,32.394283290000033],[49.027777764000064,32.409109304000026],[49.026273589000027,32.412804517000041],[49.024840195000081,32.416608394000036],[49.018850771000075,32.431321106000041],[49.012461727000073,32.445912674000056],[49.005676279000056,32.460375313000043],[48.998497861000033,32.47470129900006],[48.990930122000066,32.488882979000039],[48.982976923000081,32.502912775000027],[48.97464233900007,32.51678318300003],[48.965930652000054,32.530486784000061],[48.956846354000049,32.544016243000044],[48.947394142000064,32.557364317000065],[48.937578917000053,32.570523855000033],[48.927405781000061,32.583487803000025],[48.916880035000077,32.596249212000032],[48.90600717500007,32.60880123700008],[48.894792893000044,32.621137141000077],[48.88324306800007,32.633250302000079],[48.871363769000027,32.645134214000052],[48.859161249000067,32.656782493000037],[48.846641943000066,32.668188878000024],[48.833812462000026,32.67934723500008],[48.820679593000079,32.690251562000071],[48.807250294000028,32.700895991000039],[48.793531689000076,32.71127479200004],[48.77953106800004,32.721382377000054],[48.765255877000072,32.731213300000036],[48.750713721000068,32.740762264000068],[48.73591235400005,32.75002412200007],[48.720859680000046,32.758993879000059],[48.719113719000063,32.759983841000064],[48.712384876000044,32.763993280000079],[48.697088092000058,32.772666101000027],[48.681556214000068,32.781037304000051],[48.66579756200008,32.78910237100007],[48.649820582000075,32.796856948000027],[48.633633847000056,32.804296847000046],[48.617246051000052,32.811418050000043],[48.600666000000047,32.81821670800008],[48.583902613000078,32.824689149000051],[48.56696491200006,32.830831873000079],[48.549862020000035,32.836641559000043],[48.53260315700004,32.842115067000066],[48.515197628000067,32.847249434000048],[48.497654828000066,32.852041885000062],[48.479984226000056,32.85648982500004],[48.462195369000028,32.860590848000072],[48.444297868000035,32.864342734000047],[48.426301400000057,32.86774345300006],[48.408215698000049,32.870791163000035],[48.390050547000044,32.873484215000076],[48.371815776000062,32.875821149000046],[48.353521256000079,32.877800701000069],[48.335176893000039,32.879421799000056],[48.316792621000047,32.880683564000037],[48.298378397000079,32.881585314000063],[48.279944194000052,32.882126559000028],[48.261500000000069,32.882307006000076],[48.243055806000029,32.882126559000028],[48.22462160300006,32.881585314000063],[48.206207379000034,32.880683564000037],[48.187823107000042,32.879421799000056],[48.16947874400006,32.877800701000069],[48.151184224000076,32.875821149000046],[48.132949453000037,32.873484215000076],[48.114784302000032,32.870791163000035],[48.096698600000082,32.86774345300006],[48.078702132000046,32.864342734000047],[48.060804631000053,32.860590848000072],[48.043015774000025,32.85648982500004],[48.025345172000073,32.852041885000062],[48.007802372000072,32.847249434000048],[47.990396843000042,32.842115067000066],[47.973137980000047,32.836641559000043],[47.956035088000078,32.830831873000079],[47.939097387000061,32.824689149000051],[47.922334000000035,32.81821670800008],[47.905753949000029,32.811418050000043],[47.889366153000026,32.804296847000046],[47.884812423000028,32.802203819000056],[47.883876567000073,32.80179713800004],[47.867690283000059,32.794357241000057],[47.851713747000076,32.786602666000078],[47.835955531000081,32.778537601000039],[47.820424084000081,32.770166399000061],[47.805127723000055,32.761493579000046],[47.790074632000028,32.752523821000068],[47.775272857000061,32.74326196100003],[47.760730300000034,32.733712996000065],[47.746454716000073,32.723882071000048],[47.732453709000026,32.713774485000044],[47.718734728000072,32.703395682000064],[47.705305061000047,32.692751251000061],[47.692171833000032,32.681846923000023],[47.679342001000066,32.670688565000034],[47.666822353000043,32.659282180000048],[47.65461950200006,32.647633900000073],[47.642739880000079,32.635749986000064],[47.631189742000061,32.623636825000062],[47.619975156000066,32.611300920000076],[47.609102003000032,32.598748896000075],[47.598575974000028,32.585987486000079],[47.588402565000081,32.573023538000029],[47.578587077000066,32.559864000000061],[47.575541216000033,32.555562860000066],[47.570173451000073,32.548365458000035],[47.560722147000035,32.535017382000035],[47.551638719000039,32.521487921000073],[47.542927863000045,32.507784317000073],[47.534594071000072,32.493913905000056],[47.526641626000071,32.479884105000053],[47.519074600000067,32.465702420000071],[47.511896856000078,32.45137642800006],[47.505112042000064,32.436913782000033],[47.498723591000044,32.422322206000047],[47.492734719000055,32.407609486000069],[47.487148426000033,32.39278347100003],[47.481967492000081,32.37785206500007],[47.477194476000079,32.362823227000035],[47.472831718000066,32.347704960000044],[47.468881334000059,32.332505314000059],[47.465345218000039,32.317232378000028],[47.462225043000046,32.301894273000073],[47.459522256000071,32.286499155000058],[47.457238080000081,32.271055201000024],[47.455373515000076,32.255570615000067],[47.45392933800008,32.240053616000068],[47.453908182000077,32.239732296000057],[47.453472799000053,32.235054135000041],[47.452449590000072,32.219512943000041],[47.451847623000049,32.203955809000036],[47.451667003000068,32.188390980000065],[47.451907610000035,32.17282670000003],[47.452569102000041,32.157271209000044],[47.452940731000069,32.151933365000048],[47.453160165000043,32.146772172000055],[47.454241799000044,32.131233674000043],[47.455742920000034,32.115720415000055],[47.457662522000078,32.100240597000038],[47.459999379000067,32.084802399000068],[47.462752048000027,32.069413974000042],[47.465918868000074,32.05408344500006],[47.469497962000048,32.038818903000049],[47.473487238000075,32.02362839500006],[47.477884391000032,32.008519930000034],[47.482686905000037,31.993501466000055],[47.487892056000078,31.978580914000077],[47.493496909000044,31.963766126000053],[47.499498325000047,31.949064896000039],[47.505892961000029,31.934484955000073],[47.51267727100003,31.920033967000052],[47.51984751100008,31.905719523000073],[47.527399738000042,31.891549141000041],[47.535329815000068,31.877530259000025],[47.543633414000055,31.863670231000071],[47.552306013000077,31.849976327000036],[47.56134290600005,31.836455726000054],[47.570739202000027,31.823115510000036],[47.580489828000054,31.809962669000072],[47.590589530000045,31.797004088000051],[47.601032881000037,31.784246548000056],[47.611814279000043,31.771696724000037],[47.622927954000033,31.759361178000063],[47.63436796700006,31.74724635900003],[47.646128218000058,31.735358596000026],[47.65820244400004,31.723704099000031],[47.670584228000052,31.71228895400003],[47.683266998000079,31.701119117000076],[47.696244033000028,31.690200418000074],[47.709508464000066,31.679538552000054],[47.72305328200008,31.669139078000057],[47.736871337000025,31.659007416000065],[47.750955343000044,31.64914884600006],[47.765297886000042,31.639568505000057],[47.779891421000059,31.630271380000067],[47.794728280000072,31.621262312000056],[47.809800675000076,31.612545991000047],[47.825100703000032,31.604126951000069],[47.840620348000073,31.59600957300006],[47.85635148700004,31.588198078000062],[47.872285893000026,31.580696527000043],[47.888415239000039,31.573508820000029],[47.904731102000028,31.566638692000026],[47.921224970000026,31.560089713000025],[47.923788269000056,31.559132214000044],[47.937747594000029,31.553589188000046],[47.954409705000046,31.547364744000049],[47.971232527000041,31.54146808400003],[47.988207297000031,31.535902271000054],[48.005325182000036,31.530670195000027],[48.02257727600005,31.525774572000046],[48.039954608000073,31.521217943000067],[48.057448149000038,31.517002672000046],[48.075048809000066,31.513130947000036],[48.092747450000047,31.50960477700005],[48.110534883000071,31.506425991000071],[48.128401878000034,31.503596237000068],[48.146339166000075,31.501116984000078],[48.164337444000068,31.49898951800003],[48.182387379000033,31.497214941000038],[48.200479612000038,31.495794174000025],[48.218604766000055,31.494727953000051],[48.23675344600008,31.494016833000046],[48.25491624600005,31.493661180000061],[48.273083754000027,31.493661180000061]]]},"properties":{"OBJECTID":1,"Shape_Length":4.7279670722236782,"Shape_Area":1.7632784912668589}}]}